postal_code_searched,name,address,lat,lng
67118,7-Eleven,"Av. Pablo Livas 2119, La Quinta, 67175 Guadalupe, N.L., Mexico",25.669523,-100.239902
67118,7-Eleven,"Av Eloy Cavazos 3810, El Pe¾on, 67182 Guadalupe, N.L., Mexico",25.6573207,-100.2220905
67118,7-Eleven,"LOS FAISANES. AVE. PLUTARCO ELIAS CALLES ESQ, Faisán Dorado 3861, 67130 Guadalupe, N.L., Mexico",25.688866,-100.175277
67118,7-Eleven,"A, Pío XII 1205, Valle de San Antonio, 64989 Guadalupe, N.L., Mexico",25.7102987,-100.2045063
67118,7-Eleven,"Av. Bosques Del Contry # 2900, 67176 Guadalupe, N.L., Mexico",25.6631788,-100.2484997
67118,7-Eleven,"Benito Juárez 900, Fraccionamiento Cerro Azul, 64000 Guadalupe, N.L., Mexico",25.666412,-100.173516
67118,7-Eleven,"Benito Juárez 600, Centro de Guadalupe, 67140 Guadalupe, N.L., Mexico",25.6795996,-100.2527289
67118,7-Eleven,"Olmo 210, Rincón de Los Sabinos 1er Etapa, 67205 Guadalupe, N.L., Mexico",25.6706565,-100.163759
67118,7-Eleven,"Hacienda, Sto Domingo. Av. López Mateos S/N, 66490 San Nicolás de los Garza, N.L., Mexico",25.730733,-100.252688
67118,7-Eleven,"Av. Ignacio Morones Prieto 2400, Benito Juárez (El Pozo), 67100 Guadalupe, N.L., Mexico",25.6835406,-100.2533749
67118,7-Eleven,"Av. Pablo Livas 2800, Vivienda Popular, 67176 Guadalupe, N.L., Mexico",25.6685266,-100.2326822
67118,7-Eleven,"Gral Ignacio Zaragoza 101, La Pastora, 67100 Guadalupe, N.L., Mexico",25.6679606,-100.2564715
67118,7-Eleven,"Av. Pablo Livas 198, Residencial Santa María, 67275 Cdad. Benito Juárez, N.L., Mexico",25.6581142,-100.1901646
67118,7-Eleven,"Av. Ruiz Cortines 201, Policía Auxiliar, 67120 Guadalupe, N.L., Mexico",25.7093586,-100.1849311
67118,7-Eleven,"Calle Carr A Huinala 800, 66634 Cdad. Apodaca, N.L., Mexico",25.7169322,-100.1683155
67118,7-Eleven,"Sector Mario, Av. Juan Montemayor 300, Hacienda los Morales 3er Sector, 66495 San Nicolás de los Garza, N.L., Mexico",25.7157031,-100.2400695
67118,7-Eleven,"Alamo Temblón 401, Alamos del Parque, 66633 Cdad. Apodaca, N.L., Mexico",25.7343456,-100.1870257
67118,7-Eleven,"Av Eloy Cavazos 4004, Cuesta Verde, 67186 Guadalupe, N.L., Mexico",25.6546775,-100.2116073
67118,7-Eleven,"Minerva 1401, Nueva Linda Vista, 67112 Guadalupe, N.L., Mexico",25.7063962,-100.2302497
67118,7-Eleven,"Av. Casa Blanca 600, Residencial 1er Sector, 66475 San Nicolás de los Garza, N.L., Mexico",25.7340887,-100.2271306
67118,7-Eleven,"Lomas De Tolteca. Av. Eloy Cavazos Local No. 2400, 2402, 64760 Guadalupe, N.L., Mexico",25.661498,-100.238253
67118,7-Eleven,"Av. Lic. Adolfo López Mateos 3000, Sin Nombre de Col 30, 66475 San Nicolás de los Garza, N.L., Mexico",25.7362109,-100.2432073
67118,7-Eleven,"Mario, Av. Juan Montemayor 800, Hacienda los Morales 2do Sector, 66495 San Nicolás de los Garza, N.L., Mexico",25.714293,-100.248209
67118,7-Eleven,"Av. Lic. Adolfo López Mateos 1099, Sin Nombre de Col 30, 66479 San Nicolás de los Garza, N.L., Mexico",25.7367265,-100.2440436
67118,7-Eleven,"Benito Juárez 1601, La Fuente, 67150 Guadalupe, N.L., Mexico",25.6788685,-100.2367737
67118,7-Eleven,"Benito Juárez 352-Ote, Los Lermas, 67180 Guadalupe, N.L., Mexico",25.6747983,-100.2020359
67118,7-Eleven,"Arboledas De San Cristobal, Av. Casa Blanca 1501, San Cristóbal, 66463 San Nicolás de los Garza, N.L., Mexico",25.735071,-100.213197
67118,7-Eleven,"No611, Benito Juárez 611, Col. Fraccionamiento, Industrial La Silla, 67199 Guadalupe, N.L., Mexico",25.668535,-100.176995
67118,7-Eleven,"Km 10 Via Autopista Mty-Cadereyta # 1310, 67115 Guadalupe, N.L., Mexico",25.694871,-100.1733279
67118,7-Eleven,"C. Mariano Matamoros 525, Marte, 64000 Monterrey, N.L., Mexico",25.6740262,-100.2530669
67118,7-Eleven,"Av. Ruiz Cortines 600, San Miguel, 67113 Guadalupe, N.L., Mexico",25.708868,-100.1889354
67118,7-Eleven,"Blvd. Acapulco 400, Hacienda de San Miguel, 67113 Guadalupe, N.L., Mexico",25.7233258,-100.1912171
67118,7-Eleven,"Carr. a Laredo 705-Norte, Cerradas de Casa Blanca, 66458 San Nicolás de los Garza, N.L., Mexico",25.7364278,-100.2204349
67118,7-Eleven,"Av. Lazaro Cardenas Y Quintana Roo 110, 67170 Guadalupe, N.L., Mexico",25.6620737,-100.2340115
67118,7-Eleven,"Autop. Monterrey- Reynosa 3-1321 ""A, La Floresta, 67100 Guadalupe, N.L., Mexico",25.6964551,-100.212146
67118,7-Eleven,"Av. Ruiz Cortines 300, Sin Nombre de Col 51, 67110 Guadalupe, N.L., Mexico",25.7092427,-100.1945063
67118,7-Eleven,"Río Tamazunchale 362, Dos Ríos Sector IV, 67196 Guadalupe, N.L., Mexico",25.6795395,-100.162664
67118,7-Eleven,"Fraccionamiento Acapulco. Av. Pablo Livas Sin Numero, 66230 Guadalupe, N.L., Mexico",25.662452,-100.199206
67118,7-Eleven,"C/ Hidalgo 201, Centro de Guadalupe, 64010 Guadalupe, N.L., Mexico",25.677604,-100.259633
67118,7-Eleven,"Camino de San Pedro 501, Las Dalias, Sin Nombre de Col 42, 67110 Guadalupe, N.L., Mexico",25.7170798,-100.2037068
67118,7-Eleven,"Av. Miguel Alemán 4142, Nueva Linda Vista, 67112 Guadalupe, N.L., Mexico",25.706556,-100.2243303
67118,7-Eleven,"M, Av. Isidoro Sepúlveda Martínez 609, Industrial J, 66633 Cdad. Apodaca, N.L., Mexico",25.742033,-100.2170326
67118,7-Eleven,"Del Altillo 802, Residencial Talaverna, 67110 Guadalupe, N.L., Mexico",25.7170666,-100.2165584
67118,7-Eleven,"Av. Pablo Livas 5501, Cerro de La Silla (U.c.), 67190 Guadalupe, N.L., Mexico",25.6619693,-100.1977301
67118,7-Eleven,"Av. Guadalajara 201, Josefa Zozaya, 67113 Guadalupe, N.L., Mexico",25.7274819,-100.1904401
67118,7-Eleven,"Av. Félix Galván 1324-Ote, Hacienda los Morales 3er Sector, 66495 San Nicolás de los Garza, N.L., Mexico",25.7186927,-100.2364672
67118,7-Eleven,"Gral. Plutarco Elías Calles 3034, Riberas del Río, 67160 Guadalupe, N.L., Mexico",25.6842473,-100.2247613
67118,7-Eleven,"Benito Juárez 951, Sin Nombre de Col 31, 67150 Guadalupe, N.L., Mexico",25.6796759,-100.2449662
67118,7-Eleven,"Av. las Américas Nte. 301, León XIII, 67120 Guadalupe, N.L., Mexico",25.7017921,-100.2464592
67118,7-Eleven,"Vivienda Popular. Av. Benito Juarez Sin Numero, 64000 Guadalupe, N.L., Mexico",25.677296,-100.230639
67118,7-Eleven,"Las Sabinas, Boulevard Miguel De La Madrid Km. 8, Sin Numero, 67130 Guadalupe, N.L., Mexico",25.691551,-100.194669
67118,7-Eleven,"Av. Orquídea 102, Vitrales, 66354 Guadalupe, N.L., Mexico",25.7089412,-100.1626882
67118,7-Eleven,"Fracc. La Fé. Ave. Miguel Alemán, Blvd. Acapulco 330 Esq, 67113 San Nicolás de los Garza, N.L., Mexico",25.723719,-100.213836
67118,7-Eleven,"Trabajadores Cetemistas 601, Parque la Talaverna, 66743 San Nicolás de los Garza, N.L., Mexico",25.7117081,-100.2278254
67118,7-Eleven,"S. Miguel 700, Rincón de San Miguel, 66648 Cdad. Apodaca, N.L., Mexico",25.7222048,-100.1671962
67118,7-Eleven,"La Fe, Av. Rómulo Garza Int. Local H10, Sin Nombre de Col 34, 66260 San Nicolás de los Garza, N.L., Mexico",25.726021,-100.214552
67118,7-Eleven,"Av. Los Pinos 134, Industrias del Vidrio Oriente, 66490 San Nicolás de los Garza, N.L., Mexico",25.7281816,-100.2382647
67118,7-Eleven,"Av. Miguel Alemán 501, Lolita, 67130 Guadalupe, N.L., Mexico",25.6913751,-100.2496082
67118,7-Eleven,"Vista Regia 546, Linda Vista, 67123 Guadalupe, N.L., Mexico",25.6918993,-100.2616026
67118,7-Eleven,"No1701, P.º de las Américas Supermanzana Sector, Contry Sol 5o Sector, 67174 Monterrey, N.L., Mexico",25.6585653,-100.2606444
66634,7-Eleven,"Av. Concordia, Av. Carlos Salinas de Gortari s/n, esq, 66600 Cdad. Apodaca, N.L., Mexico",25.768555,-100.198353
66634,7-Eleven,"Lat. Miguel Aleman Esquina, Sin Nombre de Col 30, 66600 Cdad. Apodaca, N.L., Mexico",25.775389,-100.185922
66634,7-Eleven,"Av. Concordia 3645, Moderno Apodaca II, 66600 Cdad. Apodaca, N.L., Mexico",25.7735309,-100.2012476
66634,7-Eleven,"Av. Miguel Alemán 1000, El Milagro, 66600 Cdad. Apodaca, N.L., Mexico",25.7526371,-100.1986634
66634,7-Eleven,"Del Chopo 601, Los Fresnos Nte., 66612 Cdad. Apodaca, N.L., Mexico",25.7693935,-100.2452256
66634,7-Eleven,"JAL, GUADALAJARA. Colonia: Coronel, Alfonso Calderón # 507, El Retiro, 64639 Cdad. Apodaca, N.L., Mexico",25.7687286,-100.2088439
66634,7-Eleven,"Av. Aceros 801, Jardines del Mezquital, 66445 San Nicolás de los Garza, N.L., Mexico",25.7493484,-100.2402244
66634,7-Eleven,"COL. VILLA DE LOS AYALA, NL, ESCOBEDO, AVE ACUEDUCTO 99, 66633 Cdad. Apodaca, N.L., Mexico",25.791603,-100.23488
66634,7-Eleven,"Río Pilón 612, Pueblo Nuevo V, 66646 Cdad. Apodaca, N.L., Mexico",25.7596641,-100.1656643
66634,7-Eleven,"José María Morelos y Pavón 387, Cabecera Municipal (Apodaca), Apodaca Centro, 66600 Cdad. Apodaca, N.L., Mexico",25.7821814,-100.1882631
66634,7-Eleven,"Paseo Virrey de Velasco, Av. Paseo Rcda. Colonial # 100, Rinconada Colonial de Apodaca, 66606 Cdad. Apodaca, N.L., Mexico",25.795531,-100.199517
66634,7-Eleven,"Blvd. Carlos Salinas de Gortari 651-B, 66630 Cdad. Apodaca, N.L., Mexico",25.7446944,-100.2315829
66634,7-Eleven,"Av. Chopo 2110, 66609 Cdad. Apodaca, N.L., Mexico",25.777244,-100.221989
66634,7-Eleven,"Gral. Mariano Escobedo 101, Cabecera Municipal (Apodaca), Apodaca Centro, 66600 Cdad. Apodaca, N.L., Mexico",25.776407,-100.186836
66634,7-Eleven,"Av. Acapulco 551, Hacienda Las Margaritas 6to. Sector, 66647 Cdad. Apodaca, N.L., Mexico",25.7145425,-100.1559436
66634,7-Eleven,"Av. Girasol 500, Las Margaritas 4to. Sector, 66647 Cdad. Apodaca, N.L., Mexico",25.7118766,-100.1569698
66634,7-Eleven,"Valle De Las Palmas, Av. Las Palmas 501, Cabecera Municipal (Apodaca), Apodaca Centro, 66600 Cdad. Apodaca, N.L., Mexico",25.78493,-100.19101
66634,7-Eleven,"sector, Hacienda Margaritas XII, Orquídeas Manzana 410 L019, 64500 Cdad. Apodaca, N.L., Mexico",25.708444,-100.150492
66634,7-Eleven,"Morelos 600, Col, Cerradas Magenta, 66632 Cdad. Apodaca, N.L., Mexico",25.75484,-100.231528
66634,7-Eleven,"Melchor Ocampo 1101, Torremolinos La Fe, 66117 Guadalupe, N.L., Mexico",25.7294846,-100.1996036
66634,7-Eleven,"Av Sta Cecilia 800, Santa Cecilia, 66636 Cdad. Apodaca, N.L., Mexico",25.775536,-100.239317
66634,7-Eleven,"Av. E, Los Alcatraces 600, Alcatraces Residencial, Sin Nombre de Col 33, 66470 San Nicolás de los Garza, N.L., Mexico",25.723885,-100.226888
66634,7-Eleven,"Terminales De Carga, Av. Juan Montemayor 150, Central de Carga, 66494 San Nicolás de los Garza, N.L., Mexico",25.7117283,-100.2361531
66634,7-Eleven,"Av Calz Unión 1400, Parque la Talaverna, 66495 San Nicolás de los Garza, N.L., Mexico",25.7171294,-100.2354554
66634,7-Eleven,"C. Arroyo la Talaverna S/N, Bosques de Linda Vista, 66495 Guadalupe, N.L., Mexico",25.7157763,-100.2120274
66634,7-Eleven,"P.º de San Carlos 101, Misión de Guadalupe, 67117 Guadalupe, N.L., Mexico",25.729683,-100.20626
66634,7-Eleven,"Rincon De Los Angeles, Av. Las Torres 200, Residencial 1er Sector, 66475 San Nicolás de los Garza, N.L., Mexico",25.7341351,-100.2271648
66634,7-Eleven 1225 Jacarandas,"Jacarandas, 66634 Cdad. Apodaca, N.L., Mexico",25.7460226,-100.18703
66634,7-Eleven,"Parque Industrial Huinala. Carr. San Miguel Huinala, Av. Luis Donaldo Colosio esq, 64346 Cdad. Apodaca, N.L., Mexico",25.758951,-100.172472
66634,7-Eleven Agua Fría,"Av. Miguel Alemán 1001, 66627 Cdad. Apodaca, N.L., Mexico",25.7855482,-100.1593156
66634,7-Eleven,"Av. de la Zanja 612, Villa de San Miguel, 67113 Guadalupe, N.L., Mexico",25.7050694,-100.2082211
66634,7-Eleven,"Av, Ojo de Agua 501, Fraccionamiento Privadas Borneo, 64346 Cdad. Apodaca, N.L., Mexico",25.7703959,-100.2144048
66634,7-Eleven,"Av. Diego Díaz de Berlanga 1901, Torres de Santo Domingo, 66449 San Nicolás de los Garza, N.L., Mexico",25.7550049,-100.2473037
66634,7-Eleven,"QQGR+5R, Moderno Apodaca II, 66604 Cdad. Apodaca, N.L., Mexico",25.7754375,-100.2079375
67112,7-Eleven,"Av. Las Torres 5526, Guadalupe Chávez, 64780 Monterrey, N.L., Mexico",25.6716772,-100.2225415
67112,7-Eleven,"P.º Amberes 800, 67130 Guadalupe, N.L., Mexico",25.699203,-100.155154
67112,7-Eleven,"Floresta. Av. Torres, Del Oriente 1551, La Floresta, 64460 Guadalupe, N.L., Mexico",25.696503,-100.212135
67112,7-Eleven,"Antiguo Camino A. Huinala Km 14 S/N, El Milagro, 66458 Cdad. Apodaca, N.L., Mexico",25.74685,-100.192131
67180,7-Eleven,"Av. Acueducto 1313, Valle Real, 67280 Cdad. Benito Juárez, N.L., Mexico",25.6465353,-100.1791629
67180,7-Eleven,"Santa Isabel, Av. Acueducto 3921, Santa Monica Sector 8, 67280 Cdad. Benito Juárez, N.L., Mexico",25.62608,-100.173455
67180,7-Eleven,"Residencial, Ex Hda Rosario. Av. Eloy Cavazos S/N, 65850 Cdad. Benito Juárez, N.L., Mexico",25.643954,-100.168972
67180,7-Eleven,"Cam. a Jardines de La Silla 301-A, Las Palmas, 64840 Guadalupe, N.L., Mexico",25.648025,-100.1886
67180,7-Eleven,"Av. Del Bosque 101, Col Paseo de Guadalupe, 67199 Guadalupe, N.L., Mexico",25.6582864,-100.1644808
67180,7-Eleven,"Av Eloy Cavazos 103, Sierra Vista, 67288 Cdad. Benito Juárez, N.L., Mexico",25.6425404,-100.1638184
67180,7-Eleven,"Av. Eloy Cavazos Y Sta. De Lima, Local-7027, Carmen Serdán, 67280 Guadalupe, N.L., Mexico",25.651909,-100.19752
67180,7-Eleven,"Av Eloy Cavazos 100, Ex Hacienda El Rosario, 67257 Cdad. Benito Juárez, N.L., Mexico",25.6442537,-100.1702347
67180,Seven Eleven,"Autop. Monterrey- Reynosa 11, 67116 Monterrey, N.L., Mexico",25.6950586,-100.1736374
67180,7-Eleven Jardines Y Palmas,"Las Palmas, 67192 Guadalupe, Nuevo Leon, Mexico",25.6465486,-100.187855
67180,7-Eleven,"Av Eloy Cavazos 5277, Sin Nombre de Col 54, 67190 Guadalupe, N.L., Mexico",25.6547982,-100.2090052
67180,7-Eleven,"Av. Pablo Livas 1996, Gustavo Díaz Ordaz, 67180 Guadalupe, N.L., Mexico",25.66302,-100.203525
67180,7-Eleven,"Juan Zuazua 403, Del Maestro, 67140 Guadalupe, N.L., Mexico",25.6724413,-100.2620386
67180,7-Eleven,"Av. Gral. Lázaro Cárdenas 807, Ignacio Zaragoza, 67160 Guadalupe, N.L., Mexico",25.6835631,-100.2307054
67180,7 Eleven Azteca,"Av Azteca. Entre calle Apache y, Cora S/N, Residencial Azteca, 67150 Monterrey, N.L., Mexico",25.6840862,-100.2433577
67180,7-Eleven,"Av Maestro Israel Cavazos Garza 405, Nueva Aurora, 67194 Guadalupe, N.L., Mexico",25.6405691,-100.1954315
67180,7-Eleven,"Av Coahuila, Monte Verde, La Reforma, 67257 Cdad. Benito Juárez, N.L., Mexico",25.6449859,-100.1697749
67180,7-Eleven,"Av. Aldama S/N, San Rafael, 66116 Guadalupe, N.L., Mexico",25.695405,-100.2222636
67180,7-Eleven Rio Rosas,"Esq. Las Americas, Tierra Blanca 104, América Obrera, 67120 Guadalupe, N.L., Mexico",25.7049695,-100.2464477
67180,7-Eleven,"La Roca. Av. Juarez Sin Numero, 64650 Guadalupe, N.L., Mexico",25.67455,-100.212336
67180,7-Eleven,"Cruz Con Serafín Peña 4320, Benito Juárez, Prof. Serafin Peña, Guadalupe, N.L., Mexico",25.6740308,-100.212067
67180,7-Eleven,"C. Cam. A las Escobas, 67134 Guadalupe, N.L., Mexico",25.679599,-100.178973
67180,7-Eleven,"Av Eloy Cavazos S/N, Sierra Morena, 64700 Guadalupe, N.L., Mexico",25.646627,-100.179125
66644,7-Eleven,"Bello Amanecer Residencial. Prol. Ruiz Cortinez, Carr. A Dulces Nombres, 66368 Guadalupe, N.L., Mexico",25.700342,-100.13416
66644,7-Eleven,"Fraccionamiento Anzures, Anzures S/N, 67130 Cdad. Benito Juárez, N.L., Mexico",25.692673,-100.115931
66644,7-Eleven,"Parque Industrial FINSA, Ave Ihlsa 1411, 64460 Guadalupe, N.L., Mexico",25.694394,-100.1344
66644,7-Eleven,"Andres Quintana Roo 1012, 67130 Guadalupe, N.L., Mexico",25.698949,-100.15164
66644,7-Eleven,"C. Cam. A Rancho San Arturo, Misión San Pablo, 66672 Cdad. Apodaca, N.L., Mexico",25.7382061,-100.1395742
66644,7-Eleven Drive,"67258 Juárez, Nuevo Leon, Mexico",25.6983371,-100.111947
66644,7-Eleven,"Av. Ruiz Cortines, 67258 Cdad. Benito Juárez, N.L., Mexico",25.698011,-100.108002
66644,7-Eleven,"Av. Rhodesia del Nte. S/N, Real Hacienda de Huinala, 66478 Cdad. Apodaca, N.L., Mexico",25.730741,-100.16252
66644,7-Eleven,"Río Orinoco 708, 66646 Cdad. Apodaca, N.L., Mexico",25.7564178,-100.1533815
66644,7-Eleven,"DF, BENITO JUAREZ. Colonia: DEL VALLE Parroquia, #415, 66646 Cdad. Apodaca, N.L., Mexico",25.752215,-100.147265
66644,7 Eleven,"Av. Mexico 100, Sin Nombre de Col 39, 67113 Guadalupe, N.L., Mexico",25.7187556,-100.1919092
66644,7-Eleven,"Prol Ruiz Cortinez, Carr. A Dulces Nombres 1400, 67132 Guadalupe, N.L., Mexico",25.7083792,-100.1806646
66644,7-Eleven,"Av. Adolfo Ruiz Cortines Ote. 300, Sin Nombre de Col 51, 67110 Guadalupe, N.L., Mexico",25.709133,-100.194364
66644,7-Eleven,"Residencial Los Ebanos, Calle Chopo 601-2o Sector, 66600 Cdad. Apodaca, N.L., Mexico",25.777913,-100.117806
66644,7-Eleven,"Roberto Cantoral Av-Luca #500, 66675 Pesquería, N.L., Mexico",25.755471,-100.105647
66644,7 Eleven Misión San Pablo,"Av Mision San Pablo, 66643 Misión San Pablo, N.L., Mexico",25.741855,-100.14314
66644,7 Eleven,"Esq. Isidro Sepulveda, Av. Miguel Alemán 610, 66633 Cdad. Apodaca, N.L., Mexico",25.7440894,-100.2067501
66644,7-Eleven,"Fraccionamiento Los Tréboles. Agave 535, Tréboles, 66630 Cdad. Apodaca, N.L., Mexico",25.764164,-100.141735
66644,7-Eleven,"Camino Dulces Nombres - Pesquería # 1000, 66646 Cdad. Apodaca, N.L., Mexico",25.753472,-100.1532625
66644,7-Eleven,"Carretera a Dulces Nombres Manzana 576 Lote 8-B, 66634 Cdad. Apodaca, N.L., Mexico",25.7534057,-100.1548136
66644,7-Eleven,"Esq Calle, Av. Gaspar Castaño 1000, San Miguel, 66649 Cdad. Apodaca, N.L., Mexico",25.7174125,-100.1685265
66644,7-Eleven,"Esq Colosio, Carr. a San Miguel, Huinala, 66645 Cdad. Apodaca, N.L., Mexico",25.7156534,-100.1748026
66644,7-Eleven,"Av. del Teléfono S/N, Fraccionamiento San Miguel 3 Sector, 66649 Cdad. Apodaca, N.L., Mexico",25.7338418,-100.1741245
66644,7-Eleven,"Av. Modena Ote., 66643 Cdad. Apodaca, N.L., Mexico",25.734026,-100.147026
66644,7 Eleven Hacienda San Francisco (RI),"Av. Concordia 3646, Moderno Apodaca II, 66600 Cdad. Apodaca, N.L., Mexico",25.772891,-100.2016549
66644,7-Eleven,"Cam. a Dulces Nombres Manzana 576 Lote 8-B, 66646 Cdad. Apodaca, N.L., Mexico",25.753014,-100.148411
66647,7-Eleven,"Parque Industrial, C. Uranio 709, Kalos, 64660 Guadalupe, N.L., Mexico",25.669803,-100.15122
66647,7-Eleven,"Av. Vista del Nte. 232-A, Vistas del Rio, 67173 Cdad. Benito Juárez, N.L., Mexico",25.6648803,-100.0966123
66647,7-Eleven,"Gral. Plutarco Elías Calles 194, Sin Nombre de Col 2, 67160 Guadalupe, N.L., Mexico",25.686875,-100.191743
66647,7-Eleven,"NL 52 110, 67132 Bello Amanecer, N.L., Mexico",25.7002552,-100.1338659
66647,7-ELEVEN San Francisco y Umbría,"Av. San Francisco 290, 66670 Valle de Santa María, N.L., Mexico",25.7107726,-100.0985407
66647,7-Eleven,"Carretera Al Aeropuerto, S/N, Km 4, 66460 Cdad. Apodaca, N.L., Mexico",25.748407,-100.12979
66647,7 - Eleven,"Av. Valterra, 66648 Cdad. Apodaca, N.L., Mexico",25.724892,-100.162421
66647,7-Eleven,"Eje Metropolitano 41, 66643 Monterrey, N.L., Mexico",25.7481326,-100.1291395
66647,7-Eleven,"Avenida Ruiz Cortines & Bahía Central 67258, 67258 Cdad. Benito Juárez, N.L., Mexico",25.6977989,-100.1108609
66647,7-Eleven,"Av. Concordia, 66637 Cdad. Apodaca, N.L., Mexico",25.7499934,-100.1795689
66647,7-Eleven,"Jacinto Cenobio 537, 66673 Pesquería, N.L., Mexico",25.749027,-100.09642
66647,7 ELEVEN,"Av Balcones de San Miguel con Blvd Acapulco SUPER 7, Lomas de San Miguel, 67113 Guadalupe, N.L., Mexico",25.7214057,-100.1855922
67150,7-Eleven,"Lagrange. Av. López Mateos S/N, 66495 San Nicolás de los Garza, N.L., Mexico",25.718987,-100.265674
67150,7-Eleven,"Benito Juárez 701, Centro de Guadalupe, 67100 Guadalupe, N.L., Mexico",25.6798886,-100.2659641
67150,7-Eleven,"Av. José Alvarado 2601, Buenos Aires, 64810 Monterrey, N.L., Mexico",25.660143,-100.287207
67150,7-Eleven,"La Primav. Era, Av. Ricardo Covarrubias 3556-3ER SECTOR, La Primavera, 64850 Monterrey, N.L., Mexico",25.6525005,-100.2780693
67150,7-Eleven,"Isaac Garza 518, Obrera, 64010 Monterrey, N.L., Mexico",25.6778349,-100.2907645
67150,7-Eleven,"Av. Ricardo Covarrubias 2805, Narvarte, 64830 Monterrey, N.L., Mexico",25.6524556,-100.2827553
67150,7-Eleven,"Av. Revolución 702, Buenos Aires, 64820 Guadalupe, N.L., Mexico",25.6630487,-100.2838931
67150,7-Eleven,"Prof. Antonio Coello E. 420, Obrera, 64010 Monterrey, N.L., Mexico",25.6764785,-100.2913412
67150,7-Eleven,"Av. Chapultepec 2420, Valle del Huajuco, 64820 Monterrey, N.L., Mexico",25.6661691,-100.2714653
67150,7-Eleven,"Adolfo Ruiz Cortinez 106, Industrias del Vidrio 1er Sector, 66490 San Nicolás de los Garza, N.L., Mexico",25.7032256,-100.2674752
67150,7-Eleven,"Av. Los Angeles 2908, Sin Nombre de Col 35, 66484 Monterrey, N.L., Mexico",25.7088311,-100.2768422
67150,7-Eleven,"Av. Ignacio Morones Prieto 1000-Ote, Buenos Aires, 64810 Monterrey, N.L., Mexico",25.6698489,-100.2892196
67150,7-Eleven,"Mirto 2600, Moderna, 67760 Monterrey, N.L., Mexico",25.6970708,-100.2871825
67150,7-Eleven,"Constitución 3904, Sin Nombre de Col 21, 64590 Monterrey, N.L., Mexico",25.682771,-100.2655552
67150,7-Eleven,"Prol Madero 4221-1, Sin Nombre de Col 21, 64590 Monterrey, N.L., Mexico",25.6848455,-100.272885
67150,7-Eleven,"Av. José Alvarado S/N, Residencial La Española, 64810 Monterrey, N.L., Mexico",25.660289,-100.275477
67150,7-Eleven,"P.º de las Américas 702, Contry La Silla 9o Sector, 67173 Monterrey, N.L., Mexico",25.6511144,-100.2659817
67150,7-Eleven,"Av. Del Estado 200, Tecnológico, 64700 Monterrey, N.L., Mexico",25.651034,-100.29252
67150,7-Eleven,"Nogalar 305-1, Antiguo Nogalar, 66484 San Nicolás de los Garza, N.L., Mexico",25.7188778,-100.2832685
67150,7-Eleven,"Alta Vista. Av. Junco De La Vega L-Abc, 64700 Monterrey, N.L., Mexico",25.647877,-100.284317
67150,7-Eleven,"Av. Nogalar Sur 302-4° Sector, Futuro Nogalar, 66480 San Nicolás de los Garza, N.L., Mexico",25.712926,-100.2803846
67150,7-Eleven,"Av. Eugenio Garza Sada 2762, Tecnológico, 64700 Monterrey, N.L., Mexico",25.6476743,-100.2905928
67150,7-Eleven,"Helechos 2400, Villa Florida, 64810 Monterrey, N.L., Mexico",25.6566325,-100.2898682
67150,7-Eleven,"Antonio, Leonides Villarreal 1320, Madero, 64560 Monterrey, N.L., Mexico",25.6855369,-100.277782
67174,7-Eleven,"Av. Eugenio Garza Sada 1400, Nuevo Repueblo, 64700 Monterrey, N.L., Mexico",25.6632932,-100.2974763
67174,7-Eleven,"Florencio Antillón 492-Ote, Centro, 64000 Monterrey, N.L., Mexico",25.6694369,-100.3018061
67174,7-Eleven,"Padre Mier 1052, Centro, 64000 Monterrey, N.L., Mexico",25.6661872,-100.3039312
67174,7-Eleven,"C. Diego de Montemayor 200, Centro, 64000 Monterrey, N.L., Mexico",25.6760718,-100.3047457
67174,7-Eleven,"C. 2 de Abril - Jesús Dionisio González 1830, Nuevo Repueblo, 64700 Monterrey, N.L., Mexico",25.6564592,-100.2994967
67174,7-Eleven,"Sendero Sur 203, Contry, 64860 Guadalupe, N.L., Mexico",25.627184,-100.2758078
67174,7-Eleven,"Agrónomos 504, Tecnológico, 64700 Monterrey, N.L., Mexico",25.6463585,-100.29249
67174,7-Eleven,"Av. Félix U. Gómez 622, Centro, 64000 Monterrey, N.L., Mexico",25.6794687,-100.2976964
67174,7-Eleven,"Eugenio Garza Sada 4306, Las Brisas 1o. Sector, 64799 Monterrey, N.L., Mexico",25.6239182,-100.2755556
67174,7-Eleven,"Calle Gral. Aarón Sáenz 6008, Mederos, 64950 Monterrey, N.L., Mexico",25.6112043,-100.2714216
67174,7-Eleven,"Agrónomos 204, Tecnológico, 64700 Monterrey, N.L., Mexico",25.6484332,-100.2930932
67174,7-Eleven,"Alejandría 155, Roma, 64700 Monterrey, N.L., Mexico",25.6564257,-100.2934118
67174,7-Eleven,"Dr. José Ma. Coss 931, Barrio Antiguo, Centro, 64000 Monterrey, N.L., Mexico",25.6668644,-100.3089661
67174,7-Eleven,"P.º del Acueducto 2801, 64910 Monterrey, N.L., Mexico",25.619836,-100.296005
67174,7-Eleven,"Cam. Al Mirador 5360, Jardines del Paseo 2o. Sector, 64920 Monterrey, N.L., Mexico",25.6239026,-100.3000754
67174,7-Eleven,"C. Washington 685, Centro, 64720 Monterrey, N.L., Mexico",25.674022,-100.3087043
67174,7-Eleven,"Jalisco 602, Independencia, 64720 Monterrey, N.L., Mexico",25.659293,-100.3139374
67174,7-Eleven,"Av. Alfonso Reyes 321, entre Las Musas Y Navío, Contry Tesoro, 65850 Monterrey, N.L., Mexico",25.6435611,-100.2773251
67174,7-Eleven,"Hilario Martinez 1819, Ancira, 64720 Monterrey, N.L., Mexico",25.6509086,-100.3061974
67174,7-Eleven,"Galeana Nte 540, Centro, 64000 Monterrey, N.L., Mexico",25.6715179,-100.3132943
67174,7-Eleven,"Palestina 900, Roma, 64820 Monterrey, N.L., Mexico",25.6509001,-100.2987224
67174,7-Eleven,"Av. Félix U. Gómez 1522, Terminal, 64580 Monterrey, N.L., Mexico",25.6872732,-100.2965519
67174,7-Eleven,"Praga 4596, Las Torres, 64930 Monterrey, N.L., Mexico",25.6146418,-100.2759337
67174,7-Eleven,"Av. Félix U. Gómez 1302, Terminal, 64580 Monterrey, N.L., Mexico",25.6848555,-100.2969499
67174,7-Eleven,"Av. Revolución 4020-Sur, Colonial La Silla, 64860 Monterrey, N.L., Mexico",25.6334253,-100.2727544
67174,7-Eleven,"Blvrd Acapulco 4056, Las Brisas 10o. Sector, 64790 Monterrey, N.L., Mexico",25.6221771,-100.2825193
67174,7-Eleven,"Juan Ignacio Ramón 504-Ote, Centro, 64000 Monterrey, N.L., Mexico",25.6709662,-100.3110066
67174,7-Eleven,"Epicuro 501, Contry La Silla 1er Sector, 64780 Guadalupe, N.L., Mexico",25.622449,-100.26818
67174,7-Eleven,"Vicente Guerrero 559-Sur, Centro, 64000 Monterrey, N.L., Mexico",25.6709382,-100.3138109
67174,7-Eleven,"León Guzmán 1705-Pte, Nuevo Repueblo, 64760 Monterrey, N.L., Mexico",25.6614653,-100.2988786
67174,7-Eleven,"Av Lázaro Cárdenas 2760, Mirador Residencial, 64910 Monterrey, N.L., Mexico",25.6252784,-100.2933731
67174,7-Eleven,"5 de Mayo 441-Ote, Centro, 64000 Monterrey, N.L., Mexico",25.6732918,-100.3112463
67174,7-Eleven,"Tacuba 1666, Centro, 64000 Monterrey, N.L., Mexico",25.670912,-100.29898
67174,7-Eleven,"C. Aramberri 611, Centro, 64720 Monterrey, N.L., Mexico",25.6757036,-100.3087342
64850,7-Eleven,"P.º del Acueducto 6236, Acueducto Satélite, 64960 Monterrey, N.L., Mexico",25.6045533,-100.2753078
64850,7-Eleven,"Lago Erie 5111, Lagos del Bosque, 64890 Monterrey, N.L., Mexico",25.6016424,-100.2644598
64850,7-Eleven,"David Alfaro Siqueiros 130-Pb 3, Zona Valle Oriente, 66269 San Pedro Garza García, N.L., Mexico",25.6424895,-100.3211642
64850,7-Eleven,"Privanza Mónaco 999, Privanzas 1er Sector 4a Etapa P. Córcega, 66260 San Pedro Garza García, N.L., Mexico",25.639296,-100.3203859
64850,7-Eleven,"Av Lázaro Cárdenas 2475, Sin Nombre de Col 38, 64765 San Pedro Garza García, N.L., Mexico",25.6337382,-100.3065022
64850,7-Eleven,"Guadalupe 2, Cd Satélite, 64960 Monterrey, N.L., Mexico",25.6040844,-100.270292
64850,7-Eleven,"José María Morelos 111, Centro, 64000 Monterrey, N.L., Mexico",25.6673883,-100.3151915
64850,7-Eleven,"Pedregal La Silla Nte. 5401, Pedregal La Silla, 64890 Monterrey, N.L., Mexico",25.6045137,-100.2587638
64850,7-Eleven,"Pedro Ramírez Vázquez 200-Interior 11, Parque Corporativo Ucalli, 66278 San Pedro Garza García, N.L., Mexico",25.6407463,-100.32019
64850,7-Eleven,"Av Eugenio Garza Sada 6221, Cortijo del Río, 64890 Monterrey, N.L., Mexico",25.6060505,-100.2680528
67110,7-Eleven,"Cam. al Mezquital 101-Y 103, Torres de Santo Domingo, 66440 San Nicolás de los Garza, N.L., Mexico",25.7388364,-100.2547274
66648,7-Eleven,"Av. de la Zanja 1601, Paseo de San Miguel, 67110 Guadalupe, N.L., Mexico",25.71249,-100.211103
66648,7-Eleven,"Av. Adolfo López Mateos 600, Residencial Colibrí, 67110 Guadalupe, N.L., Mexico",25.677745,-100.215175
66648,7-Eleven,"Av. Casa Blanca, San Cristóbal, 66478 San Nicolás de los Garza, N.L., Mexico",25.734734,-100.214533
67176,7-Eleven,"Av. Eugenio Garza Sada 1500, Contry, 64860 Monterrey, N.L., Mexico",25.6312792,-100.2792742
66670,7-ELEVEN,"Av. Sta. Maria, 67256 Cdad. Benito Juárez, N.L., Mexico",25.6777105,-100.0803084
66670,7-Eleven,"Av. de los Navegantes, 67256 Cdad. Benito Juárez, N.L., Mexico",25.6891162,-100.0832522
66670,7-eleven,"67256 Nuevo Leon, Mexico",25.6936644,-100.0897351
66670,"7-Eleven, Coahuila","Kalos, 67205 Guadalupe, Nuevo Leon, Mexico",25.6603038,-100.1469715
66670,"7-Eleven ""San Cristóbal""","67256 Juárez, Nuevo Leon, Mexico",25.687823,-100.0806799
66670,7-Eleven,"Carretera Apodaca-Juáez 100-A colonia Los Puertos, Supermanzana Cp, 67258 Cdad. Benito Juárez, N.L., Mexico",25.6609679,-100.0763065
66670,7-Eleven,"Carr. A Reynosa No251, Los Arcos, 67190 Guadalupe, N.L., Mexico",25.6561337,-100.1307317
66670,7-Eleven,"Carretera Los Ebanitos, Las Sabinas, Cam. a San Roque 500, 64810 Cdad. Benito Juárez, N.L., Mexico",25.656842,-100.135745
66670,7-Eleven,"Carr. a San Roque S/N, Valle Sur, 66278 Cdad. Benito Juárez, N.L., Mexico",25.651531,-100.141496
66670,7-Eleven,"Carr. A Reynosa 643, 67279 Cdad. Benito Juárez, N.L., Mexico",25.654494,-100.121141
66670,Oxxo,"Av. San Francisco 390, 66670 Valle de Santa María, N.L., Mexico",25.7221562,-100.1111525
66670,7-Eleven,"Carr. a San Roque 1202, Monte Verde, Residencial Monteverde, 67277 Cdad. Benito Juárez, N.L., Mexico",25.6447276,-100.1481346
66670,7-Eleven Belterra,"C. Prol. Pablo Livas, 67275 Cdad. Benito Juárez, N.L., Mexico",25.6463991,-100.1236343
66670,7-Eleven Rivieras del Sol,"Av. las Torres, Los Encinos, 67275 Cdad. Benito Juárez, N.L., Mexico",25.6439133,-100.1194402
67129,7-Eleven,"16 Y 5A Avenida 254, 66463 San Nicolás de los Garza, N.L., Mexico",25.7296508,-100.2811299
67129,7-Eleven,"Sabiduría 100, Paseo Praderas, 66446 San Nicolás de los Garza, N.L., Mexico",25.7342307,-100.2703562
67129,7-Eleven,"Calle Número 4 Lote 1y 2, Jardines de Anáhuac, 64240 San Nicolás de los Garza, N.L., Mexico",25.734895,-100.271844
67140,7-Eleven,"Victoria Soberana 729, Céntrika Victoria, Centrika, 64610 Monterrey, N.L., Mexico",25.6967698,-100.3029661
67140,7-Eleven,"Ruperto Martínez 101-Ote, Centro, 64000 Monterrey, N.L., Mexico",25.6768672,-100.3135842
67140,7-Eleven,"Av Alfonso Reyes 445, Sin Nombre de Col 20, 64410 Monterrey, N.L., Mexico",25.7065877,-100.3145377
67140,7-Eleven,"Av. Benito Juárez 814, Centro, 64000 Monterrey, N.L., Mexico",25.676962,-100.314414
67140,7-Eleven,"Santiago Tapia Ote. 306, Centro, 64000 Monterrey, N.L., Mexico",25.679265,-100.3117671
67140,7-Eleven,"Río Pánuco 2300, México, 64740 Monterrey, N.L., Mexico",25.6480586,-100.296155
67140,7-Eleven,"Av. José Alvarado 1002, Residencial La Florida, 64810 Monterrey, N.L., Mexico",25.6599154,-100.2966204
67140,7-Eleven,"José María Morelos 424, Centro, 64000 Monterrey, N.L., Mexico",25.667315,-100.312589
64590,7-Eleven,"Av. Cristóbal Colón S/N, Col Obrera, Sarabia, 64000 Monterrey, N.L., Mexico",25.686324,-100.316146
64590,7-Eleven,"Calle Gral. Carlos Salazar Pte. 353, Centro, 64000 Monterrey, N.L., Mexico",25.6826369,-100.3162566
64590,7-Eleven,"Ruperto Martinez Y Villagran 130, 64000 Monterrey, N.L., Mexico",25.6766454,-100.3230559
64590,7-Eleven,"Av. Benito Juárez 604, Centro, 64000 Monterrey, N.L., Mexico",25.681222,-100.3138665
64590,7-Eleven,"Av. Pino Suárez 1125, Centro, 64000 Monterrey, N.L., Mexico",25.6859571,-100.3176244
64590,7-Eleven,"Dolores Ladrón de Guevara 800, Del Nte., 64500 Monterrey, N.L., Mexico",25.711506,-100.3025118
66478,7-Eleven,"Av. Diego Díaz de Berlanga 1513, Santo Domingo, 66660 San Nicolás de los Garza, N.L., Mexico",25.7536439,-100.2511283
66478,7-Eleven,"Domingo Av Sto Domingo 1601, Col. Praderas De Sto, 66460 San Nicolás de los Garza, N.L., Mexico",25.7541754,-100.2750431
66478,7-Eleven,"Calle Rep. Mexicana 600, La Nogalera 1er Sector, 66470 San Nicolás de los Garza, N.L., Mexico",25.7625207,-100.2731314
66478,7-Eleven,"El Refugio 2o Secto. Ignacio Ramírez 218, 66415 San Nicolás de los Garza, N.L., Mexico",25.76176,-100.261136
66478,7-Eleven,"Abril En Portugal 740, Valle Del Roble, Residencial Roble 6to Sector, 66456 San Nicolás de los Garza, N.L., Mexico",25.7590299,-100.2712716
66478,7-Eleven,"Av. Vesubio 850-Y 852, Balcones de las Puentes, 64349 San Nicolás de los Garza, N.L., Mexico",25.741554,-100.274173
66478,7-Eleven Santo Domingo,"Av. Santo Domingo 1601, Praderas de Santo Domingo, 66437 San Nicolás de los Garza, N.L., Mexico",25.7522096,-100.2633056
66478,7-Eleven,"De La Justicia L35, Las Alamedas, 64346 San Nicolás de los Garza, N.L., Mexico",25.766061,-100.266692
66478,7-Eleven,"Av. Las Puentes 952, Las Puentes 7o Sector, 66460 San Nicolás de los Garza, N.L., Mexico",25.750444,-100.269366
66478,7-Eleven,"Av. Las Puentes 800, Las Puetes 10o Sector, 66460 San Nicolás de los Garza, N.L., Mexico",25.7452331,-100.2737011
66478,7-Eleven,"Hacienda Los Pinos. Av. Guatemala, Cruz de San Andrés 400 Esq, 66635 Cdad. Apodaca, N.L., Mexico",25.771146,-100.248875
67160,7-Eleven,"Río Conchos, C. Pte. 500 Esq, 66460 San Nicolás de los Garza, N.L., Mexico",25.7368864,-100.2825287
67160,7-Eleven,"Av Los Árboles 401, Industrias del Vidrio Oriente, 66470 San Nicolás de los Garza, N.L., Mexico",25.7211505,-100.2322422
66645,7-Eleven,"VILLAS DE ALCALI, NL, GARCÍA, BÓRAX 400, 66600 Cdad. Apodaca, N.L., Mexico",25.781821,-100.181126
66645,7-Eleven,"Rogelio González Caballero 100, Parque Industrial FINSA, 66626 Cdad. Apodaca, N.L., Mexico",25.7887317,-100.1447368
66645,7-Eleven,"Aleman Y Camino A, Miguel Hidalgo Lote Edxx, 66600 Agua Fría, N.L., Mexico",25.7804149,-100.1900389
67182,7-Eleven,"Gregorio Canales 552, 67286 Cdad. Benito Juárez, N.L., Mexico",25.609615,-100.185755
67182,7-Eleven,"Av. Chapultepec 700-Ote, 67147 Guadalupe, N.L., Mexico",25.6686427,-100.2639559
67182,7-Eleven,"Av. Revolución 3942, Villa del Río, 64850 Monterrey, N.L., Mexico",25.6366744,-100.2723791
67182,7-Eleven,"Av. Chapultepec 816, La Herradura, 67140 Guadalupe, N.L., Mexico",25.664879,-100.266176
88500,7-Eleven,"Del Valle, Blvd. Miguel Hidalgo 1500, Esquina Taray, 88620 Reynosa, Tamps., Mexico",26.082348,-98.301035
88500,7-Eleven,"Aztlan. Calle 20, C. Fuente de Trevi Esq, 88740 Reynosa, Tamps., Mexico",26.061592,-98.32059699999999
88500,7-Eleven,"Esquina Con, Elías Piña, C. Pekín 103, 88670 Reynosa, Tamps., Mexico",26.0606012,-98.31413549999999
88500,7-Eleven,"TAM, Reynosa. Colonia: Centro De Reynosa. Guerrero Esquina, Benito Juárez S/N, Ribereña 900, 88620 Reynosa, Tamps., Mexico",26.089547,-98.29269599999999
88500,7-Eleven,"Prol. Río Purificación 320, Longoria, 88758 Reynosa, Tamps., Mexico",26.0563803,-98.2983828
88500,7-Eleven,"Calle Dr. Puig 200, Longoria, 88690 Reynosa, Tamps., Mexico",26.0622508,-98.2976984
88500,7-Eleven,"La Espuela, Paraíso. Tonga Esquina Con Hawai Y Bldv, 88680 Reynosa, Tamps., Mexico",26.068172,-98.265317
88500,7-Eleven,"Calle Cdad. de México 230, Hacienda Las Fuentes ÌII, Hacienda las Fuentes, 88620 Reynosa, Tamps., Mexico",26.088882,-98.33071299999999
88500,7-Eleven,"Narcizo Mendoza. Bethoven Esquina, Villanueva 116, 88701 Reynosa, Tamps., Mexico",26.074584,-98.310318
88500,7-Eleven,"Rodríguez. Oaxaca Esquina Con San Luis, Oaxaca, Rodríguez, 88630 Reynosa, Tamps., Mexico",26.084701,-98.28266099999999
88500,7-Eleven,"Boulevard Las Fuentes, Esquina Circuito Inependencia 1501, 88703 Reynosa, Tamps., Mexico",26.0509202,-98.3219811
88500,7-Eleven,"Boulevard Hidalgo, J. Escandón 1313-A, 88670 Reynosa, Tamps., Mexico",26.08225,-98.299612
88500,7-Eleven,"Esquina Con, P.º de las Jacarandas 100, Américo Vilalrreal, 88727 Reynosa, Tamps., Mexico",26.0587984,-98.2901114
88500,7-Eleven,"TAM, Rosalinda Guerrero s/n, Jardín, 88600 Reynosa, Tamps., Mexico",26.069572,-98.300123
88500,7-Eleven,"Zacatecas 2013, Unidad Obrera, 88786 Reynosa, Tamps., Mexico",26.0467625,-98.2381247
88500,7-Eleven,"COL. 5 DE MAYO, Ricardo Flores Magón S/N, 5 de Diciembre, 88700 Reynosa, Tamps., Mexico",26.060119,-98.30671199999999
88500,7-Eleven,"Av Beethoven 301, Enrique Cárdenas González, 88700 Reynosa, Tamps., Mexico",26.0733627,-98.309811
88500,7-Eleven,"Aquiles Serdan, TAM, Boulevard Fundadores 900 Esquina, 88610 Reynosa, Tamps., Mexico",26.095845,-98.307519
88500,7-Eleven,"11, Esquina, Blvd.las Fuentes 200, Aztlán, 88740 Reynosa, Tamps., Mexico",26.0644251,-98.3170782
88500,7-Eleven,"Prol. Londres 435, La Cañada, 88700 Reynosa, Tamps., Mexico",26.0635266,-98.31102399999999
88500,7-Eleven,"Río Colorado Y Río Carneros Esquina, Blvd.las Fuentes, 88700 Reynosa, Tamps., Mexico",26.054943,-98.320173
88500,7-Eleven,"Veracruz 246, Rodríguez, 88680 Reynosa, Tamps., Mexico",26.0840173,-98.2837728
88500,7-Eleven,"Del Prado. Av. Portes Gil, Colón Esquina, 88560 Reynosa, Tamps., Mexico",26.086349,-98.270928
88500,7-Eleven,"TAM, Reynosa. Colonia: Ribereña, Lote número 42, de la sección 41, 88620 Reynosa, Tamps., Mexico",26.10264,-98.319982
88500,7-Eleven,"TAM, Reynosa. Colonia: Valle Verde. Amado Nervo Esquina Con Ignacio Velarde, 88703 Reynosa, Tamps., Mexico",26.057029,-98.312496
88500,7-Eleven,"Con, El Olmo. Sexta, Miguel Barragán Esquina, 88650 Reynosa, Tamps., Mexico",26.082924,-98.31306599999999
88500,7-Eleven,"TAM, Supermanzana Colonia:, Beatty, Versalles # 1162, 88699 Reynosa, Tamps., Mexico",26.078785,-98.293567
88500,7-Eleven,"Esquina Calle Central, Av Mil Cumbres 215-A, Las Cumbres, 88730 Reynosa, Tamps., Mexico",26.0632839,-98.3268287
88500,7-Eleven,"Centro De Reynosa, TAM, Colón 410, 88500 Reynosa, Tamps., Mexico",26.088835,-98.27615899999999
88500,7-Eleven,"Praxedis Balboa, Prol. Río Purificación 900 Esquina, Loma Alta, 88670 Reynosa, Tamps., Mexico",26.0756286,-98.29626239999999
88500,7-Eleven,"Emiliano Zapata Esquina Calle Tres Col, Las Cumbres, 88745 Reynosa, Tamps., Mexico",26.0540744,-98.328597
88500,7-Eleven,"Río Mante Esquina Praxedis Balboa Col, Longoria, 88660 Reynosa, Tamps., Mexico",26.0735071,-98.2942305
88500,7-Eleven,"Esquina Con, Longoria. Once, Blvd. Morelos S/N, 88660 Reynosa, Tamps., Mexico",26.064109,-98.29400199999999
88500,7-Eleven,"Heron Ramírez 135, Rodríguez, 88615 Reynosa, Tamps., Mexico",26.0759963,-98.2887816
88500,7-Eleven,"Centro De Reynosa. Zaragoza Esquina, TAM, Matías S. Canales 900, 88540 Reynosa, Tamps., Mexico",26.091961,-98.29035499999999
88500,7-Eleven,"C. Heriberto Deándar Amador 229, Longoria, 88699 Reynosa, Tamps., Mexico",26.058395,-98.298306
88500,7-Eleven,"Occidental Esquina Con Saltillo 1005- B, 88630 Reynosa, Tamps., Mexico",26.0785348,-98.2904653
88500,7-Eleven,"Luis Donaldo Colosio 442, Tamaulipas, 87430 Reynosa, Tamps., Mexico",26.0847262,-98.27879
88500,7-Eleven,"Fraccionamiento Las Fuentes. Boulevard Las Fuentes, Décima Con, 88710 Reynosa, Tamps., Mexico",26.068241,-98.31634799999999
88500,7-Eleven,"Aquiles Serdan, Fundadores 900, Esquina Jazmin, 88540 Reynosa, Tamps., Mexico",26.097057,-98.28761899999999
88500,7-Eleven,"Las Torres 624, Los Doctores, 88690 Reynosa, Tamps., Mexico",26.0582919,-98.3052137
88500,7-Eleven,"Esquina Con, Aztlan. Boulevard El Maestro, Ote. 2, 88710 Reynosa, Tamps., Mexico",26.070234,-98.323673
88500,7-Eleven,"Ribereña. Carretera Ribereña, TAM, Supermanzana Colonia: Km 1, 88500 Reynosa, Tamps., Mexico",26.089577,-98.281021
88500,7-Eleven,"TAM, Reynosa. Colonia: Rodríguez. San Luis, Esquina Con Monterrey #300, 88710 Reynosa, Tamps., Mexico",26.077542,-98.32549999999999
88500,7-Eleven,"Jose López Portillo. Carretera San Fernanado, Ciprés 415, 88757 Reynosa, Tamps., Mexico",26.0845569,-98.29969249999999
88500,7-Eleven,"Blvrd Louis Donaldo Colosio #3200, Loma Blanca, 88780 Reynosa, Tamps., Mexico",26.0476181,-98.23014719999999
88500,7-Eleven,"Herón Ramírez Esquina Con Mérida 1405, 88630 Reynosa, Tamps., Mexico",26.0742078,-98.28900949999999
88500,7-Eleven,"Paraíso. Tonga Esquina Con Hawai Y Bldv. La Espuela, TAM, Supermanzana Colonia:, 88631 Reynosa, Tamps., Mexico",26.067983,-98.28479100000001
88500,7-Eleven,"TAM, Reynosa. Colonia: Centro De Reynosa. Gpe Victoria, Calle Francisco I. Madero Esquina, 88560 Reynosa, Tamps., Mexico",26.089574,-98.27228799999999
88500,7-Eleven,"Av. Rio Purificacion, Altamira Esquina, 88759 Reynosa, Tamps., Mexico",26.051469,-98.2980795
88500,7-Eleven,"TAM, Reynosa. Colonia: Rodríguez, Occidental Esquina Con Saltillo 1005- B, 88630 Reynosa, Tamps., Mexico",26.078392,-98.28483899999999
88500,7-Eleven,"Miguel Alemán 1240, 88500 Reynosa, Tamps., Mexico",26.0933691,-98.2726268
88500,7-Eleven,"C. Benito Juárez 680, 88500 Reynosa, Tamps., Mexico",26.0905508,-98.27811299999999
88500,7-Eleven,"Del Prado, TAM, Calle Pascual Ortiz Rubio Esq, Guerrero, 88620 Reynosa, Tamps., Mexico",26.089109,-98.305571
88500,7-Eleven,"Honduras Y Amado Nervo 1902, 88700 Reynosa, Tamps., Mexico",26.052013,-98.28304729999999
88500,7-Eleven,"Av. Reynosa, Av. 20 de Noviembre 301-B, 88780 Reynosa, Tamps., Mexico",26.070511,-98.2681593
88500,7-Eleven,"Boulevard Circuito Independencia Y Oriente Dos 51, 88703 Reynosa, Tamps., Mexico",26.067215,-98.3249543
88500,7-Eleven,"Doctores, TAM, Dr. Puig 200, Esquina Río, Purificacion, 88700 Reynosa, Tamps., Mexico",26.062248,-98.312269
88500,7-Eleven,"TAM, Lib. Matamoros-Monterrey 1070, Jacinto López I, 88740 Reynosa, Tamps., Mexico",26.044554,-98.314617
88500,7-Eleven,"TAM, Beethoven 301, Narciso Mendoza, 88670 Reynosa, Tamps., Mexico",26.069788,-98.29725099999999
88799,7-Eleven,"Heroes de la Reforma 31, Lic Benito Juárez, 88790 Reynosa, Tamps., Mexico",26.0213095,-98.2837627
88799,7-Eleven,"Héroes De La Reforma Esquina Tlaxiaco S/N, 88747 Reynosa, Tamps., Mexico",26.0158016,-98.28491969999999
88799,7-Eleven,"Centro De Rio Bravo, TAM, Rio Bravo, Fco I Madero 225, 88796 Reynosa, Tamps., Mexico",25.986754,-98.295035
88799,7-Eleven,"Lib. Matamoros-Monterrey 50-A, Burocrática, 88777 Reynosa, Tamps., Mexico",26.043544,-98.293531
88799,7-Eleven,"Fraccionamiento Villas Diamante. Av, Punta Arenas 100 Esquina, La Joya, 88777 Reynosa, Tamps., Mexico",26.010781,-98.244028
88799,7-Eleven,"Los Almendros, Viad. Reynosa 230, Esq Miguel Angel, 88799 Reynosa, Tamps., Mexico",25.9951012,-98.25071609999999
88799,7-Eleven,"Calle Milan Esq Circuito Elite S/N, 88795 Reynosa, Tamps., Mexico",26.0013988,-98.23765139999999
88799,7-Eleven,"Carr. a San Fernando 1460, Arcoíris, 88770 Reynosa, Tamps., Mexico",26.0259917,-98.2781309
88799,7-Eleven,"Esquina Con, Carlos Cantu Heroes De La Reforma, Séptima 203, 88797 Reynosa, Tamps., Mexico",26.0301425,-98.2826742
88799,7-Eleven,"Benito Juárez, TAM, Heroes De La Reforma 31, 88780 Reynosa, Tamps., Mexico",26.022012,-98.23254399999999
88799,7-Eleven,"Libramiento Ote 100, La Escondida, 88770 Reynosa, Tamps., Mexico",26.039951,-98.2768675
88799,7-Eleven,"Loma Blanca Boulevard Loma Blanca, Luis Donaldo Colosio Murrieta Esquina-A, 88780 Reynosa, Tamps., Mexico",26.04692,-98.22782
88799,7-Eleven,"Everest 467, 88799 Reynosa, Tamps., Mexico",25.9992713,-98.2535525
88799,7-Eleven,"15 de Mayo 101, Satélite, 88795 Reynosa, Tamps., Mexico",26.0215959,-98.2567856
88799,7-Eleven,"Puerta Sur, TAM, Av. Puerta Morelos Esquina, Villas De, 88790 Reynosa, Tamps., Mexico",26.008701,-98.277073
88799,7-Eleven,"Las Torres 320, Arecas, Lomas de la Torre, 88790 Reynosa, Tamps., Mexico",26.0227176,-98.2907767
88799,7-Eleven,"Esquina Con, Marte R. Gomez. Carretera A San Fernando, Tlaxcoapan 1000, 88798 Reynosa, Tamps., Mexico",26.014772,-98.27743199999999
88799,7-Eleven,"Pico Del Potosi, Cerro del Bernal 903 Esquina, 88780 Reynosa, Tamps., Mexico",26.0306636,-98.22544309999999
88799,7-Eleven,"Prol. Río Purificación 208-Manzana 1 Lote 4, Jacinto López III, 88756 Reynosa, Tamps., Mexico",26.0432255,-98.30007909999999
88799,7-Eleven,"Tamaulipas. Valle Hermoso, Camargo 1198, 88639 Reynosa, Tamps., Mexico",26.030236,-98.28766399999999
88799,7-Eleven,"TAM, Carretera A Matamoros Supermanzana Colonia: Km. 82.5, El Bienestar, 88788 Reynosa, Tamps., Mexico",26.018926,-98.22457100000001
88799,7-Eleven,"Carmina Esquina, Av. 20 de Noviembre 223, 88780 Reynosa, Tamps., Mexico",26.0260316,-98.2386775
88799,7-Eleven,"Esquina Con, Luis Donaldo Osio. Rio Purificación, Oscar Alexander 800, 88793 Reynosa, Tamps., Mexico",26.037857,-98.299207
88799,7-Eleven,"COL. Pedro J. Mendez, TAM, Calle OchO Supermanzana Colonia: Manzana 35 Lote 13, 88776 Reynosa, Tamps., Mexico",26.021739,-98.239329
88799,7-Eleven,"Carretera San Fernando, Libramiento A Reynosa Col, Col del Maestro, 88770 Reynosa, Tamps., Mexico",26.0333282,-98.2783644
88799,7-Eleven,"Carretera, TAM, Reynosa. Colonia:, 5 S/N, 88756 Reynosa, Tamps., Mexico",26.045613,-98.31374
88799,7-Eleven,"Col. Juan Baez, TAM, Rio Bravo, Guerra. Venezuela 215-A, 88855 Reynosa, Tamps., Mexico",25.987484,-98.274273
88799,7 Eleven,"Km5, Lib. Matamoros-Monterrey, Fundadores, 88756 Reynosa, Tamps., Mexico",26.0455623,-98.3159233
88799,7 Eleven,"Cerro Del Mercado 119 Esq. Carretera Reynosa - Matamoros, Lote Edxx, Almaguer, 88780, Mexico",26.0224618,-98.232069
88799,7-Eleven,"TAM, Reynosa. Colonia: Benito Juárez. Héroes De La Reforma Esquina Tlaxiaco, 88776 Reynosa, Tamps., Mexico",26.015657,-98.241219
88799,7-Eleven,"TAM, Reynosa. Colonia:, Prolongación Cumbres. Emiliano Zapata Esquina, 88763 Reynosa, Tamps., Mexico",26.053961,-98.26089999999999
88799,7-Eleven,"Reynosa, 88780 Heroica Matamoros, Tamps., Mexico",26.0455062,-98.2361521
88799,7-Eleven,"TAM, Reynosa. Colonia: Almaguer. Carretera Reynosa-Matamoros, 88799 Reynosa, Tamps., Mexico",26.021759,-98.27151699999999
88799,7-Eleven,"Mariano Matamoros 1000, Voluntad y Trabajo, 88776 Reynosa, Tamps., Mexico",26.0246077,-98.25311889999999
88799,7-Eleven,"Esquina Con Brecha A, Carr. a San Fernando, Lic Benito Juárez, 88790 Las Anacuas, Tamps., Mexico",26.0217979,-98.2780428
88799,7-Eleven,"Niños Heroes, Las Mitras, 88759 Reynosa, Tamps., Mexico",26.0449304,-98.30786350000001
88799,7-Eleven,"Lateral 1070, Jacinto López III, 88756 Reynosa, Tamps., Mexico",26.0433566,-98.29970999999999
88799,7 Eleven,"Carretera A San Fernando Brecha de Las Anacuas Esq, Lote Edxx, Lic Benito Juárez, 88500 Reynosa, Tamps., Mexico",26.0093529,-98.2768081
88799,7-Eleven,"Matamoros Esquina, Con 7 Tarasco, 88756 Reynosa, Tamps., Mexico",26.0427459,-98.3102232
88799,7-Eleven,"Av. Juan B Tijerina Calle, Ignacio Altamirano 245 Esquina, 88620 Reynosa, Tamps., Mexico",26.0339634,-98.2734644
88799,7 Eleven,"Loma De Los Rosales S/N, 88796 Reynosa, Tamps., Mexico",26.009186,-98.2828844
88799,7-Eleven,"Abedules 115, Francisco Villa, 88780 Reynosa, Tamps., Mexico",26.0433362,-98.2254839
88799,7-Eleven,"Carr. a San Fernando Km 108-2, 88855 Reynosa, Tamps., Mexico",26.006521,-98.27642279999999
88799,7-Eleven,"Parque Industrial del Norte, TAM, Supermanzana Colonia:, Parque Industrial Norte, 88756 Reynosa, Tamps., Mexico",26.051952,-98.291524
88799,7-Eleven,"TAM, Reynosa. Colonia: Praderas Elite. Calle Milan Esq, Circuito Elite s/n, 88777 Reynosa, Tamps., Mexico",25.999638,-98.249667
88900,7-Eleven,"La Paz, TAM, Francisco Y Madero 502, Supermanzana Colonia:, 88900 Cdad. Río Bravo, Tamps., Mexico",25.978176,-98.085173
88900,7-Eleven,"Venezuela 215-A, Juan Báez Guerra, 88945 Cdad. Río Bravo, Tamps., Mexico",25.988056,-98.125244
88900,7-Eleven,"Esquina Con Asteroides, Columbia 401, 88933 Cdad. Río Bravo, Tamps., Mexico",26.001103,-98.1191192
88900,7-Eleven,"Esquina Con, Riberas Del Bravo. Maple, Guanajuato 230, 88925 Cdad. Río Bravo, Tamps., Mexico",25.996344,-98.068328
88900,7-Eleven,"Tlaxcala 124, Colonia:, Río Bravo, 88943 Cdad. Río Bravo, Tamps., Mexico",25.988454,-98.118939
88900,7-Eleven,"Fraccionamiento Del Rio. Av. Fco I Madero, Río Grande 200 Esquina, 88910 Cdad. Río Bravo, Tamps., Mexico",25.9759989,-98.0579578
88900,7-Eleven,"TAM, Reynosa. Colonia: El Campanario. Rene Salinas #72, 88980 Cdad. Río Bravo, Tamps., Mexico",25.980241,-98.077411
88900,7-Eleven,"Madero 225, Primero de Mayo, 88900 Cdad. Río Bravo, Tamps., Mexico",25.9898333,-98.1166044
88900,7-Eleven,"Av Francisco I. Madero Esquina, La Paz, 88900 Cdad. Río Bravo, Tamps., Mexico",25.9796309,-98.06998639999999
88900,7 Eleven,"Taxco 1028, INFONAVIT San Diego, 88970 Cdad. Río Bravo, Tamps., Mexico",25.9814489,-98.07819459999999
88900,7-Eleven,"Centro De Rio Bravo, TAM, Ignacio Lopez Rayon S/N, 88943 Cdad. Río Bravo, Tamps., Mexico",25.976155,-98.118892
88900,7-Eleven,"Nayarit 400, Río Bravo, 88900 Cdad. Río Bravo, Tamps., Mexico",25.9895294,-98.0923883
88900,7-Eleven,"Guanajuato 300-A, Hijos de Ejidatarios, 88920 Cdad. Río Bravo, Tamps., Mexico",25.9913382,-98.08829809999999
88900,7-Eleven,"Centro De Rio Bravo, TAM, Av Francisco I. Madero 205, 88930 Cdad. Río Bravo, Tamps., Mexico",25.986296,-98.10296699999999
88900,7-Eleven,"TAM, C. Orion 202, Satélite, 88933 Cdad. Río Bravo, Tamps., Mexico",25.998835,-98.11935
88900,7-Eleven,"Los Almendros II, TAM, Reynosa, Calle Trece 202, 88920 Cdad. Río Bravo, Tamps., Mexico",25.992142,-98.07170699999999
88900,7-Eleven,"TAM, Rio Bravo. Colonia: Rio Bravo, Av Constitución 1101 Esquina, Galeana, 88930 Cdad. Río Bravo, Tamps., Mexico",25.985434,-98.08908699999999
88900,7-Eleven,"C. Tlaxcala 124, Río Bravo, 88900 Cdad. Río Bravo, Tamps., Mexico",25.9895286,-98.09626779999999
88900,7-Eleven,"Av. Juarez, Av Constitución Esquina, 88950 Cdad. Río Bravo, Tamps., Mexico",25.986455,-98.10096
88900,7-Eleven,"Jacarandas 116, Zona Industrial, Fraccionamiento del Río, 88960 Cdad. Río Bravo, Tamps., Mexico",25.9751761,-98.05691329999999
88900,"7 ELEVEN ""TELMEX""","Río Bravo Municipality, Río Bravo, 88959 Río Bravo, Tamaulipas, Mexico",25.9842034,-98.0901119
88900,7-Eleven,"Av Francisco I. Madero 12 801 Esquina-SM Sec, San Diego, 88980 Cdad. Río Bravo, Tamps., Mexico",25.9845557,-98.0826688
88900,7-Eleven,"Av. Juarez Constitución Esquina, 88950 Cdad. Río Bravo, Tamps., Mexico",25.9803053,-98.10207129999999
88900,7-Eleven,"Ejido 6 Enero. Carretera Matamoros-Mazatlan #100, A, 88800 Cdad. Río Bravo, Tamps., Mexico",25.971271,-98.04284299999999
88900,7-Eleven,"Balcones De Alcalá, TAM, Everest 467, 88787 Reynosa, Tamps., Mexico",25.999098,-98.205568
88900,7-Eleven,"Av Puente Pharr Esquina, Luis Donaldo Colosio, 88786 Reynosa, Tamps., Mexico",26.0054767,-98.20673409999999
88900,7-Eleven,"Ejido El Guerreño. Carretera Federal 2, Rio Bravo 500, 88780 Reynosa, Tamps., Mexico",26.012842,-98.19596399999999
88900,7-Eleven,"Centro De Rio Bravo, TAM, Rio Bravo, Fco I Madero Esquina, 88707 Reynosa, Tamps., Mexico",25.983818,-98.196078
88900,7-Eleven,"Brecha E-99 2150, Industrial Reynosa, 88780 Reynosa, Tamps., Mexico",26.0096572,-98.2180671
88900,7-Eleven,"Blvrd Louis Donaldo Colosio 37, Nuevo Reynosa, 88788 Reynosa, Tamps., Mexico",26.0371784,-98.2174692
88900,7-Eleven,"Rosalinda Guerrero S/N, Longoria, 88670 Reynosa, Tamps., Mexico",26.0694277,-98.296791
88900,7-Eleven,"Ejido El Guerreño Ejido El Guerreño Con Parcela #128, Manzana Z-1 P2/2, 88790 Reynosa, Tamps., Mexico",26.013934,-98.203927
88900,7-eleven,"Carr. a San Fernando 113, Arcoíris, 88779 Reynosa, Tamps., Mexico",26.0282863,-98.27817209999999
88900,7-Eleven,"TAM, Reynosa. Colonia:, Supermanzana Carretera Km.83 # 1000, El Bienestar, 88788 Reynosa, Tamps., Mexico",26.018151,-98.217691
88900,7-Eleven,"Esperanza, TAM, San Angel 276, 88788 Reynosa, Tamps., Mexico",26.020167,-98.22602599999999
88900,7-Eleven store,"Heron Ramírez, Rodríguez, 88630 Reynosa, Tamps., Mexico",26.0778601,-98.2877193
88715,7-Eleven,"FRACC. VENTURA. AV. VENTURA NORTE, Bahía Concepción S/N, ESQ, 88707 Reynosa, Tamps., Mexico",26.04592,-98.402283
88715,7-Eleven,"Ampliación Bugambilias Esquina Con San Joaquin Col, Av Ampliacion Bugambilias, 88707 Reynosa, Tamps., Mexico",26.0321995,-98.398917
88715,7-Eleven,"Parque, Industrial del Nte. S/N, Col del Nte, 88736 Reynosa, Tamps., Mexico",26.051856,-98.366996
88715,7-Eleven,"Esquina, Boulevard Conde Sierra Gorda, Autop. Monterrey- Reynosa 300 A, 88730 Reynosa, Tamps., Mexico",26.05119,-98.380663
88715,7-Eleven,"Carretera Reynosa - Monterrey Esquina Av. Central Col, Granjas Económicas del Nte., 88730 Reynosa, Tamps., Mexico",26.05277,-98.37746
88715,7-Eleven,"TAM, Autop. Monterrey- Reynosa Kilometro 11, 88500 Reynosa, Tamps., Mexico",26.041265,-98.40623199999999
88715,7-Eleven,"Colorines Esquina, Av. de los Tabachines Nte. 370, 88715 Reynosa, Tamps., Mexico",26.083574,-98.37001079999999
88715,7-Eleven,"Lomas Real De Jarachina, TAM, Av. Tecnológico Manzana Supermanzana Colonia:, 88730 Reynosa, Tamps., Mexico",26.041929,-98.39167200000001
88715,7-Eleven,"Carretera Reynosa- Monterrey S/N-Km 202, Hacienda las Bugambilias, 88654 Reynosa, Tamps., Mexico",26.046037,-98.392488
88715,7-Eleven,"Del Valle, TAM, Boulevard Hidalgo 1500, Esquina Taray, 88710 Reynosa, Tamps., Mexico",26.08098,-98.362938
88715,7-Eleven,"Autop. Monterrey- Reynosa Km 203, Sin Nombre de Col 26, 88730 Reynosa, Tamps., Mexico",26.0489975,-98.3862175
88715,7-Eleven,"Col.Mil Cumbres, TAM, Octava 382, 88736 Reynosa, Tamps., Mexico",26.050244,-98.381858
88715,7-Eleven,"Robles, Av De Los Pinos 205 Esquina, 88715 Reynosa, Tamps., Mexico",26.0628968,-98.3746188
88715,7-Eleven,"Las Cumbres, TAM, Central 545 Esquina, Con Poniente Ii, 88715 Reynosa, Tamps., Mexico",26.060932,-98.37998499999999
88715,7-Eleven,"Prolongación Longoria, TAM, Décima Esquina, Río Mante, 88715 Reynosa, Tamps., Mexico",26.064894,-98.38089599999999
88715,7-Eleven,"Con, C. Hacienda De Toledo, Hacienda las Bugambilias, 88730 Reynosa, Tamps., Mexico",26.0410249,-98.3923286
88715,7- Eleven,"3J55+W8, Sin Nombre de Col 26, 88715 Reynosa, Tamps., Mexico",26.0597779,-98.3916845
88715,7-Eleven,"España 318, Campestre, 88730 Reynosa, Tamps., Mexico",26.049704,-98.3762641
88715,7 Eleven,"Vista Hermosa, C. 14 Esquina, Ampliacion Hda. Las Bugambilias, 88715 Reynosa, Tamps., Mexico",26.0279018,-98.40021019999999
88715,7-Eleven,"C. Flor de Alheli 100, San Valentin, 88500 Reynosa, Tamps., Mexico",26.0173242,-98.40838889999999
88715,7-Eleven,"Esquina Con 18 De Marzo, TAM, Reynosa. Colonia: Petrolera, Veracruz 246, 88710 Reynosa, Tamps., Mexico",26.068619,-98.36016699999999
88715,7-Eleven,"Esquina Con Av, TAM, Supermanzana Colonia: Manzana Av, Puerta del Sol, 88730 Reynosa, Tamps., Mexico",26.03819,-98.35965399999999
88715,7-Eleven,"Loma Alta, TAM, Praxedis Balboa 900 Esquina, Río, 88715 Reynosa, Tamps., Mexico",26.075317,-98.358587
88715,7-Eleven,"Autop. Monterrey- Reynosa Esquina, Con Rosario, 88730 Reynosa, Tamps., Mexico",26.0591316,-98.3589847
88715,7-Eleven,"Av. Ventura Sur, 88715 Reynosa, Tamps., Mexico",26.0590862,-98.40827060000001
88715,7 Eleven,"Av de los Colorines Pte 360, Villa Florida Sector B, 88715 Reynosa, Tamps., Mexico",26.0835882,-98.370066
88715,7-Eleven,"Las Lomas Esquina Loma Dorada S/N, 88736 Reynosa, Tamps., Mexico",26.0386814,-98.3568444
88715,7-Eleven,"Almaguer, TAM, Pico Del Potosi 903 Esquina, Cerro Del, 88736 Reynosa, Tamps., Mexico",26.030624,-98.35626599999999
88715,7-Eleven,"Paraíso, TAM, Boulevard Luis Donaldo Colosio 442, 88715 Reynosa, Tamps., Mexico",26.070557,-98.359884
88715,7-Eleven,"San Angel 276, Lomas del Real de Jarachina Sur, 88477 Reynosa, Tamps., Mexico",26.0405388,-98.35512930000002
88715,7-Eleven,"Puerta Sur, Av. Morelos Esquina, Villas De Reynosa, 88736 Reynosa, Tamps., Mexico",26.010156,-98.38317800000002
88715,7 Eleven,"Campestre, 88735 Reynosa, Tamaulipas, Mexico",26.0519893,-98.3766125
88715,7-Eleven,"TAM, Reynosa. Colonia: Condados Del Norte. Carretera Monterrey - Reynosa Km, 88730 Reynosa, Tamps., Mexico",26.04862,-98.35585499999999
88715,7-Eleven,"Calle Sta Martha 196-A, Lomas del Real de Jarachina Sur, 88736 Reynosa, Tamps., Mexico",26.0408622,-98.3567238
88715,7-Eleven,"Av Vista Hermosa 340, Unidad Obrera, Residencial Miraloma, 88710 Reynosa, Tamps., Mexico",26.0704796,-98.3599667
88715,7 Eleven,"Colorines Esquina Con, De Los Plumbagos Sur 560, Villa Florida Sector A, Villa Florida, 88715 Reynosa, Tamps., Mexico",26.0635044,-98.38142979999999
88715,7-Eleven,"Av El Parque, Av Vista Hermosa 555 Esquina, Unidad Obrera, Residencial Miraloma, 88710 Reynosa, Tamps., Mexico",26.0731821,-98.359843
88715,7eleven Av. Santa Isabel.,"C. 15 126, Ampliacion Hda. Las Bugambilias, 88735 Reynosa, Tamps., Mexico",26.02817,-98.3988522
88715,7 Eleven,"Blvr. Campestre Bugambilias, Campestre Bugambilias, 88733 Reynosa, Tamps., Mexico",26.0247226,-98.3999867
88715,7-Eleven,"C. Flor de Teresitas 112, San Valentin, 88500 Reynosa, Tamps., Mexico",26.0046993,-98.40760019999999
88715,7-Eleven,"Av. Tecnológico Manzana # 124, Lomas Real De Jarachina, 88730 Reynosa, Tamps., Mexico",26.042699,-98.35042
88715,7-Eleven,"Esquina Con Libramiento Sur, Av. Loma Dorada, Lomas del Real de Jarachina Sur, 88730 Reynosa, Tamps., Mexico",26.0481319,-98.3554894
88715,7-Eleven,"Mario Vargas Llosa Esquina Con Av. Las Lomas 1199, 88736 Reynosa, Tamps., Mexico",26.0398591,-98.3465743
88715,7-Eleven,"Villa Florida. Plumbagos Esquina Con Roble, TAM, Supermanzana Colonia:, 88710 Reynosa, Tamps., Mexico",26.064408,-98.347881
88715,7-Eleven,"Puerta De Sol # 230, 88736 Reynosa, Tamps., Mexico",26.0378294,-98.3431164
88715,7-Eleven,"Presa La Laguna, TAM, Alvaro Obregon 106, 88747 Reynosa, Tamps., Mexico",26.055739,-98.341224
88715,7-Eleven,"esq. Jazmín, Col. Loma Real, Encino S/N, Lomas del Real de Jarachina Nte., 88730 Reynosa, Tamps., Mexico",26.054491,-98.346603
88715,7-Eleven,"Campeche 136, Los Muros, 88747 Reynosa, Tamps., Mexico",26.0559072,-98.3412985
88715,7-Eleven,"2MF3+84, 88736 Reynosa, Tamps., Mexico",26.0233356,-98.34724229999999
88715,7-Eleven,"Herreros 25, Valle del Bravo, 88747 Reynosa, Tamps., Mexico",26.0611195,-98.34096319999999
88715,7-Eleven,"TAM, Reynosa. Colonia: Cañada. Moscú Esquina, Venecia 225, 88747 Matamoros, Tamps., Mexico",26.06175,-98.336303
88715,7-Eleven,"Centro De Reynosa, TAM, Guadalupe Velarde 175, 88620 Reynosa, Tamps., Mexico",26.085677,-98.335285
88715,7-Eleven,"Esquina Loma, TAM, Av. Las Lomas Supermanzana Colonia:, Lomas del Real de Jarachina Sur, 88756 Reynosa, Tamps., Mexico",26.038315,-98.338726
88715,7-Eleven,"Hacienda Las Fuentes. Berna Esquina, Republica Checa 815, 88670 Reynosa, Tamps., Mexico",26.09088,-98.335681
88715,7-Eleven,"Autop. Monterrey- Reynosa Km 213, Fuentes del Valle, 88730 Reynosa, Tamps., Mexico",26.0669101,-98.3390932
88715,7-Eleven,"Blvd. Puerta Grande, 88736 Reynosa, Tamps., Mexico",26.023941,-98.34402899999999
88715,7-Eleven,"Central #545 Esquina Con, Av. Pte. Dos, Las Cumbres, 88740 Reynosa, Tamps., Mexico",26.060567,-98.333736
88715,7-Eleven,"Esquina Con, Boulevard Hidalgo, Bella Vista 1450, 88747 Reynosa, Tamps., Mexico",26.068361,-98.334812
88733,7-Eleven,"Autop. Monterrey- Reynosa 6, Sin Nombre de Col 15, 88730 Reynosa, Tamps., Mexico",26.0673374,-98.3380057
88733,7-Eleven,"Esquina Con, Pemex Pte. Av, Puerta del Sol, 88756 Reynosa, Tamps., Mexico",26.0381256,-98.3403313
88733,7-Eleven,"Blvd. Miguel Hidalgo 106, entre Prolongación Avenida del Maestro, Sin Nombre de Col 15, 88710 Reynosa, Tamps., Mexico",26.0702562,-98.3321644
88920,7-Eleven,"447 E Frontage Rd, Alamo, TX 78516, United States",26.1886669,-98.1096221
88920,7-Eleven,"901 W Business 83, Weslaco, TX 78596, United States",26.1605771,-97.99920759999999
88302,Stripes,"2749 E Grant St, Roma, TX 78584, United States",26.4075843,-98.98167769999999
88302,7-Eleven,"Esquina Con Nuevo Tamaulipas Esquina, Av. Miguel Alemán, Sur Pte, 88600 Reynosa, Tamps., Mexico",26.0682671,-98.3108443
88302,7-Eleven,"2798 US-83, Rio Grande City, TX 78582, United States",26.3709865,-98.8606174
88420,7-Eleven,"Ejido 6 Enero, TAM, Rio Bravo, Carretera Matamoros-Mazatlan 100-A, 88756 Tamps., Mexico",25.970348,-98.588926
88420,7-eleven,"Las Fuentes Coloniales, 88703 Reynosa, Tamaulipas, Mexico",26.0598545,-98.30978720000002
88420,7- Eleven,"67014 Nuevo Leon, Mexico",25.9686062,-98.59219639999999
88420,7-eleven,"INFONAVIT Arboledas, 88703 Reynosa, Tamaulipas, Mexico",26.0509807,-98.3228097
88420,7-eleven,"Narciso Mendoza, 88700 Reynosa, Tamaulipas, Mexico",26.0703509,-98.309214
88420,7-Eleven,"200 S Los Angeles St Unit A2, Los Angeles, CA 90012, United States",34.0499943,-118.2433572
88420,7-Eleven,"201 W Ben White Blvd, Austin, TX 78704, United States",30.2224508,-97.7648581
88420,7-Eleven,"146-26 Northern Blvd, Flushing, NY 11354, United States",40.7649697,-73.8196411
88420,7-Eleven,"1100 Las Vegas Blvd S, Las Vegas, NV 89104, United States",36.1584675,-115.1482764
88420,7-Eleven,"4100 Bell Blvd, Bayside, NY 11361, United States",40.7634769,-73.7712356
88420,7-Eleven,"Villa Florida, TAM, Supermanzana Colonia: Capuccinas #400, 88710 Reynosa, Tamps., Mexico",26.06028,-98.31203
88420,7-Eleven,"13555 12 Mile Rd, Warren, MI 48088, United States",42.5080574,-82.9879277
88420,7-Eleven,"22-29 31st St, Astoria, NY 11105, United States",40.7753866,-73.91136019999999
88420,7-Eleven,"30 W Wyoming Ave, Las Vegas, NV 89102, United States",36.1525833,-115.1551846
88420,7-Eleven,"25050 Jericho Tpke, Floral Park, NY 11001, United States",40.7265206,-73.7143335
88420,7-Eleven,"422 Washington St, Hoboken, NJ 07030, United States",40.7421696,-74.0296663
88420,7-Eleven,"7979 Fredericksburg Rd, San Antonio, TX 78229, United States",29.5122407,-98.5690173
88420,7-Eleven,"6507 Woodhaven Blvd #1, Rego Park, NY 11374, United States",40.7199595,-73.8645542
88810,Stripes,"435 US-281, Progreso, TX 78579, United States",26.0876777,-97.9510007
88810,7-Eleven,"2455 N International Blvd, Weslaco, TX 78596, United States",26.1845239,-97.9591514
88810,Stripes,"725 S Texas Blvd, Weslaco, TX 78596, United States",26.1520128,-97.9901335
88810,7-Eleven,"100 W Expy 83, La Feria, TX 78559, United States",26.16215,-97.850104
88810,7-Eleven,"907 S Alamo Rd, Alamo, TX 78516, United States",26.1719016,-98.1255754
88810,7-Eleven,"2423 E Tyler Ave, Harlingen, TX 78550, United States",26.190296,-97.670725
88810,7-Eleven,"2400 S McColl Rd, McAllen, TX 78503, United States",26.1780764,-98.21750759999999
88810,7 Eleven,"José López Portillo ÌII, José López Portillo III, 88757 Reynosa, Tamaulipas, Mexico",26.0369331,-98.27821019999999
88810,7-Eleven,"1610 S F St, Harlingen, TX 78550, United States",26.1768186,-97.70258170000001
88810,7-Eleven,"Longoria, 88750 Reynosa, Tamaulipas, Mexico",26.0560475,-98.297105
88810,7-Eleven,"Versalles 1162, Beatty, 88630 Reynosa, Tamps., Mexico",26.0789494,-98.2752501
88730,7-Eleven,"Centro De Reynosa, TAM, Supermanzana Colonia: Hodalgo # 875, 88610 Reynosa, Tamps., Mexico",26.091228,-98.32399199999999
88410,7-Eleven,"1901 Kalākaua Ave, Honolulu, HI 96815, United States",21.2866845,-157.8338764
88410,7-Eleven,"788 Middle Neck Rd, Great Neck, NY 11024, United States",40.8083921,-73.73592529999999
88410,7-Eleven,"1571 Hempstead Turnpike, Elmont, NY 11003, United States",40.7069739,-73.698934
88410,7-Eleven,"5801 E 10 Mile Rd, Warren, MI 48091, United States",42.4775149,-83.0465282
88410,7 Eleven,"Lomas, Independencia Esquina Con Calle Tres S/N, 88703 Reynosa, Tamps., Mexico",26.0598664,-98.3223175
88410,7-Eleven,"1412 Bergen Blvd, Fort Lee, NJ 07024, United States",40.8492852,-73.9843574
88410,7-Eleven,"@ University, 256 King St N, Waterloo, ON N2J 2Y9, Canada",43.4766798,-80.5247748
88410,7-Eleven,"8750 S Yosemite St, Lone Tree, CO 80124, United States",39.5570433,-104.8809957
88410,7-Eleven,"1922 Kalākaua Ave, Honolulu, HI 96815, United States",21.2865561,-157.833254
88410,7-Eleven,"408 S Ocean Shore Blvd, Flagler Beach, FL 32136, United States",29.4785555,-81.12657569999999
88410,7-Eleven,"544 Broad St, Bloomfield, NJ 07003, United States",40.8122509,-74.1944176
88410,7-Eleven,"1907 8 Ave NE, Calgary, AB T2E 0T2, Canada",51.0592626,-114.0145286
88410,7-Eleven,"7022 Stockton Ave, El Cerrito, CA 94530, United States",37.9102706,-122.2995446
88410,7-Eleven,"Esquina El Roble, Ribereña Manzana 22 Lote 3, Los Virreyes, 88610 Reynosa, Tamps., Mexico",26.0942164,-98.3032298
88410,Stripes,"5302 TX-107, Edinburg, TX 78542, United States",26.2920072,-98.1060631
88410,7-Eleven,"1327 E Interstate Hwy 2, Mission, TX 78572, United States",26.2000919,-98.3128194
88410,7-Eleven,"2100 Crestmoor Dr, San Bruno, CA 94066, United States",37.6238292,-122.4294197
88410,7-Eleven,"Av. Dr. Jose Zertuche 1001, Ribereña, 88620 Reynosa, Tamps., Mexico",26.0886951,-98.3006896
88796,7-Eleven,"Lib. Matamoros-Monterrey Manzana # 119, INFONAVIT Arboledas, 88740 Reynosa, Tamps., Mexico",26.0466215,-98.3286347
88796,7-Eleven,"C. 8 382, Las Cumbres, 88740 Reynosa, Tamps., Mexico",26.0506092,-98.3346064
88796,7-Eleven,"C. Catorce, Los Almendros II, Los Almendros, 88799 Reynosa, Tamps., Mexico",25.9946096,-98.2445005
88796,7-11,"Esq Paseo De Playa Diamiante, P.º Miramar S/N, 88776 Reynosa, Tamps., Mexico",26.0228202,-98.250011
88300,7-Eleven,"Esq Con Av. Amanecer, Vista Alegre 128, Casa Bella, 88747 Matamoros, Tamps., Mexico",26.0621672,-98.33645790000001
88300,7-Eleven,"Carretera Reynosa- Monterrey Km 207, Blvd. Miguel Hidalgo S/N, 88710 Tamps, Mexico",25.7823642,-99.28882279999999
88300,7-Eleven,"1490 Perry St, Denver, CO 80204, United States",39.7400866,-105.0390295
88300,7-Eleven,"Autop. Monterrey- Reynosa Km 181, 88756 Gral. Bravo, N.L., Mexico",25.7931595,-99.1800854
64978,7-Eleven,"Av.E, La Luz 1000, 64988 Monterrey, N.L., Mexico",25.593942,-100.249708
64978,7-Eleven,"Portal del Huajuco 895, 64989 Monterrey, N.L., Mexico",25.575763,-100.2360881
64978,7-Eleven,"Antiguo Camino a Valle Alto 110, Sin Nombre de Col 54, 64989 Monterrey, N.L., Mexico",25.5752624,-100.278886
64978,7-Eleven,"Encino Rojo 8620, 64979 Monterrey, N.L., Mexico",25.5904599,-100.2706866
64978,7-Eleven,"Paseo del Acueducto 4366, Laderas del Mirador (Fomerrey 21), 64765 Monterrey, N.L., Mexico",25.6293898,-100.3043858
64978,7-Eleven,"Emilio Garza Meléndez 7095, Cd Satélite, 64979 Monterrey, N.L., Mexico",25.5970234,-100.2630929
64978,7-Eleven,"Antiguo Camino a Villa de Santiago 545, 64988 Monterrey, N.L., Mexico",25.5822501,-100.2435902
64978,7-Eleven,"Av. Fundadores 1001, Alfareros, 64753 Monterrey, N.L., Mexico",25.635463,-100.3134171
64978,7-Eleven,"Cerradas de Valle Alto, Canon Gigante 7003, 64984 Monterrey, N.L., Mexico",25.586463,-100.254179
64978,7-Eleven,"Av Eugenio Garza Sada 6151, Cortijo del Río, 64890 Monterrey, N.L., Mexico",25.607347,-100.2686
64978,7-Eleven,"Antiguo Camino a Villa de Santiago 490, Sin Nombre de Col 51, 64989 Monterrey, N.L., Mexico",25.5673862,-100.2358142
64978,7-Eleven La Estanzuela,"LA ESTANZUELA KM268, La Estanzuela, 64984 Monterrey, N.L., Mexico",25.5727208,-100.2436267
64978,7-Eleven,"Pto. de Alvarado 5524, Las Brisas 10o. Sector, 64790 Monterrey, N.L., Mexico",25.6228909,-100.2872788
64978,7-Eleven Valle Alto,"Av Valle Alto 200, Lomas de Valle Alto, 64989 Monterrey, N.L., Mexico",25.5830282,-100.2572896
64978,7-Eleven,"PRIVADA RESIDENCIAL, Carr Nacional KM 268, LA RIOJA, 64989 Monterrey, N.L., Mexico",25.574676,-100.244705
64978,7-Eleven,"Km265, Carr Nacional, Sin Nombre de Col 50, 64986 Monterrey, N.L., Mexico",25.5564324,-100.2329612
64978,7-Eleven Estrellas,"Av. Estrellas 202, Contry, 64860 Monterrey, N.L., Mexico",25.6410053,-100.28148
64978,7-Eleven,"Av. Revolución 5200, Sin Nombre de Col 47, 64860 Monterrey, N.L., Mexico",25.625965,-100.273286
64978,7-Eleven,"Carr Nacional 5-Km 214, Quince de Mayo (Larralde), 67610 Congregación Calles, N.L., Mexico",25.5492346,-100.2273821
64978,7-Eleven Paseo Granada,"Av Lázaro Cárdenas 3836 A, Las Torres, 64930 Monterrey, N.L., Mexico",25.6207703,-100.2858043
64978,7-Eleven,"Av. Lazaro Cardenas, Av. Cto. Frida Kahlo 301 Esq, 66269 San Pedro Garza García, N.L., Mexico",25.6448639,-100.3219533
64978,7-Eleven,"Carretera Nacional K.m 265 Sn, 64000 Monterrey, N.L., Mexico",25.537397,-100.218974
66220,7-Eleven,"Av. Ruiz Cortines 300, Mitras Centro, 64460 Monterrey, N.L., Mexico",25.704508,-100.3452037
66220,7-Eleven,"Paseo de los Leones, Cumbres 1º Sector, 64610 Monterrey, N.L., Mexico",25.697026,-100.35778
66220,7-Eleven,"Atoyac 401, Mitras Nte., 64320 Monterrey, N.L., Mexico",25.7064458,-100.3484234
66220,7-Eleven,"Cumbres, Av Raúl Rangel Frías, 64410 Monterrey, N.L., Mexico",25.702052,-100.37168
66220,7-Eleven,"Calle Gral. Carlos Salazar Pte. 1802, Centro, 64000 Monterrey, N.L., Mexico",25.6840894,-100.330874
66220,7-Eleven,"Venustiano Carranza Sur 328, Maria Luisa, Centro, 64000 Monterrey, N.L., Mexico",25.6762139,-100.332354
66220,7-Eleven,"Aaron Sáenz Garza 1800, Sin Nombre de Col 27, 64650 Monterrey, N.L., Mexico",25.6743892,-100.3763539
66220,7-Eleven,"Av. Simón Bolívar 1650, Mitras Centro, 64460 Monterrey, N.L., Mexico",25.6954702,-100.3439271
66220,7-Eleven,"Constitución 3111, 64650 Monterrey, N.L., Mexico",25.6723957,-100.3513072
66220,7-Eleven,"Diego Saldivar 200, Lázaro Garza Ayala, 66230 San Pedro Garza García, N.L., Mexico",25.66317,-100.4139657
66220,7 Eleven,"Pino Suárez, Melchor Ocampo #932 sur, Centro, 64000 Monterrey, N.L., Mexico",25.6673396,-100.3206965
66220,7-Eleven,"Av Matehuala 103, Mitras Centro, 64460 Monterrey, N.L., Mexico",25.696015,-100.342926
66220,7-Eleven,"Av. Francisco I. Madero 3509, Mitras Sur, 64580 Monterrey, N.L., Mexico",25.6870221,-100.3430385
66220,7-Eleven,"Miguel Hidalgo y Costilla 1281, Centro, 64000 Monterrey, N.L., Mexico",25.6703813,-100.3332637
66220,7-Eleven,"Del Comercio 4, Corporativo Santa Engracia 2o Sector, 66267 San Pedro Garza García, N.L., Mexico",25.64422,-100.353461
66220,7-Eleven,"Blvd. Antonio L. Rodríguez 908, Miravalle, 64660 Monterrey, N.L., Mexico",25.6697889,-100.3701644
66220,7-Eleven,"Padre Mier 1411-Y 1413, Maria Luisa, Centro, 64000 Monterrey, N.L., Mexico",25.67207,-100.334645
66220,7-Eleven,"Anillo Periferico Y Antonio Caso, 64630 Monterrey, N.L., Mexico",25.6845152,-100.3734154
66220,7-Eleven,"Av Alfonso Reyes 999, Zona La Cima, 66230 Monterrey, N.L., Mexico",25.6541997,-100.4017333
66220,7-Eleven,"1300 L, Dr. Eduardo Aguirre Pequeño 3 Y 4, Mitras Centro, 64460 Monterrey, N.L., Mexico",25.6897572,-100.3469044
66220,7-Eleven,"Blvd. Puerta del Sol 1232, Colinas de San Jerónimo 9 Sector, 64630 Monterrey, N.L., Mexico",25.6951408,-100.3715903
66220,7-Eleven,"Lote 37 y 38, Colinas del Valle, 2° Sector, 64010 Monterrey, N.L., Mexico",25.676883,-100.396525
66220,7-Eleven,"Av Bernardo Reyes 3311, Niño Artillero, 64280 Monterrey, N.L., Mexico",25.706521,-100.3267195
66220,7-Eleven,"Av. E, Loma Redonda 1630, 64711 Monterrey, N.L., Mexico",25.6659192,-100.343696
66220,7-Eleven,"Francisco G, Francisco Garza Sada # 2968, Centro, 64000 Monterrey, N.L., Mexico",25.6804385,-100.3432671
66220,7-Eleven,"Lucio Blanco, Blvd Gustavo Díaz Ordaz 600, Valle del Seminario 1er Sector, 66362 San Pedro Garza García, N.L., Mexico",25.674229,-100.402332
66220,7-Eleven,"Av. José Vasconcelos 100, Casco Urbano, 66230 San Pedro Garza García, N.L., Mexico",25.6622336,-100.4034442
66220,7-Eleven,"Calz San Pedro 106, Miravalle, 64000 Monterrey, N.L., Mexico",25.673343,-100.368159
66220,7-Eleven,"Melchor Ocampo 1010, Centro, 64000 Monterrey, N.L., Mexico",25.667616,-100.3274245
66220,7-Eleven,"Av. Pino Suárez 720-Sur, Centro, 64000 Monterrey, N.L., Mexico",25.6704832,-100.3202119
66220,7-Eleven,"Real San Agustin. Real San Agustin # 222, Local 5 Y 6, Isla C, 64700 San Pedro Garza García, N.L., Mexico",25.651246,-100.338025
66220,7-Eleven,"Av. Sta. Barbara 1223, Zona Los Callejones, 66200 San Pedro Garza García, N.L., Mexico",25.6594924,-100.3933923
66220,7-Eleven,"Blvd Gustavo Díaz Ordaz 2123, Zona Industrial, 66210 Cdad. Santa Catarina, N.L., Mexico",25.6759136,-100.4158078
66220,7-Eleven,"Esq. Con, Fuentes Del Valle. Via Colatina, Av. Manuel Gómez Morín 636, 67190 San Pedro Garza García, N.L., Mexico",25.661006,-100.355793
66220,7-Eleven,"1a Avenida 475, Vista Hermosa, 64620 Monterrey, N.L., Mexico",25.6942783,-100.3573089
66220,7-Eleven,"C. República de Chile 126, Vista Hermosa, 64620 Monterrey, N.L., Mexico",25.694145,-100.35757
66220,7-Eleven,"Gral. Pablo González Garza 3530-C, Gonzalitos, 64020 Monterrey, N.L., Mexico",25.687835,-100.350827
66220,7-Eleven,"Esq. Con, San Jeronimo. Jesus Ma. Gonzalez, C. V 329-A, 64000 Monterrey, N.L., Mexico",25.676322,-100.355549
66220,7-Eleven,"Blvd. Puerta del Sol 669, Colinas de San Jerónimo 1o. Sector, 64630 Monterrey, N.L., Mexico",25.6891612,-100.3662278
66220,7-Eleven,"Padre Mier 653-Loc 108 y 109, Centro, 64000 Monterrey, N.L., Mexico",25.670364,-100.324987
66220,7 Eleven,"Av. Humberto Lobo 800, Del Valle, 66320 San Pedro Garza García, N.L., Mexico",25.6656519,-100.3805188
66220,7-Eleven,"Real San Agustín 102, Zona Loma Larga Oriente, 66270 San Pedro Garza García, N.L., Mexico",25.6542626,-100.3375535
66220,7-Eleven,"De La Av. Fleteros, Miravalle, Calz San Pedro 125 A-1 Cuadra, 64000 Monterrey, N.L., Mexico",25.672043,-100.367373
66220,7-Eleven,"Nevado de Toluca 102, Mitras Centro, 64460 Monterrey, N.L., Mexico",25.7023228,-100.3487901
66220,7-Eleven,"Thomas Alva Edison 2084-y 2086, Talleres, 67118 Monterrey, N.L., Mexico",25.695479,-100.333735
66220,7-Eleven,"Hidalgo 569-Ote, Centro, 64000 Monterrey, N.L., Mexico",25.6693847,-100.3244352
66220,7-Eleven,"Fortunato Lozano 2654, Benito Juárez, 64420 Monterrey, N.L., Mexico",25.7010136,-100.3372862
66220,7-Eleven,"Av. Roberto Garza Sada 106, Zona Bosques del Valle, 66320 San Pedro Garza García, N.L., Mexico",25.6360493,-100.3734311
66220,7-Eleven,"Antiguo Camino A Las Pedreras, Balcones de Galerías, 64580 Monterrey, N.L., Mexico",25.683936,-100.355494
66220,7-Eleven,"Av. Simón Bolívar 1248, Mitras Centro, 64460 Monterrey, N.L., Mexico",25.6902678,-100.344724
66220,7-Eleven,"Av. San Francisco 2716, Lomas de San Francisco, 64710 Monterrey, N.L., Mexico",25.6649868,-100.3469892
66220,7-Eleven,"15 de Mayo 556-Pte, Centro, 64000 Monterrey, N.L., Mexico",25.6724134,-100.3218832
66220,7-Eleven,"Av. José Mariano Jiménez 660, Casco Urbano, 66238 San Pedro Garza García, N.L., Mexico",25.6641022,-100.4087027
66220,7-Eleven,"Albino Espinosa 1214-Poniente, Centro, 64000 Monterrey, N.L., Mexico",25.6788914,-100.3249143
66220,7-Eleven,"Miguel Hidalgo y Costilla 2437, Obispado, 64060 Monterrey, N.L., Mexico",25.6726229,-100.3478398
64800,7-Eleven,"Av. Cuauhtémoc 359-Sur, Centro, 64000 Monterrey, N.L., Mexico",25.6740461,-100.3184128
64800,7-Eleven,"Av. Cuauhtémoc 103, Centro, 64000 Monterrey, N.L., Mexico",25.6764844,-100.318058
66267,7-Eleven,"Reforma 1102, Industrial, 64000 Monterrey, N.L., Mexico",25.6865376,-100.3218009
66267,7-Eleven,"Miguel Hidalgo y Costilla 319-Ote, Centro, 64000 Monterrey, N.L., Mexico",25.6666718,-100.3136603
66267,7-Eleven,"C. 2 de Abril - Jesús Dionisio González 103, Independencia, 64720 Monterrey, N.L., Mexico",25.6598937,-100.3164704
64102,7-Eleven,"C. No Reelección S/N, Colinas de Valle Verde, 64347 Monterrey, N.L., Mexico",25.740309,-100.371306
64102,7-Eleven,"C. Zempoala 803, Unidad Modelo, 64140 Monterrey, N.L., Mexico",25.7407061,-100.3598964
64102,7-Eleven,"Av.E, Cumbres de San Agustín 622, 64346 Monterrey, N.L., Mexico",25.753018,-100.421218
64102,7-Eleven,"Real de Cumbres 1900, Real Cumbres, 64346 Monterrey, N.L., Mexico",25.7519726,-100.4020618
64102,7-Eleven,"Fracc. Puerta de Hierro Castilla, Ave. Puerta de Hierra 1000, 66600 Monterrey, N.L., Mexico",25.748361,-100.419079
64102,7-Eleven,"Fracc. Las Lomas, 66024 Mitras Poniente, Nuevo Leon, Mexico",25.771364,-100.433742
64102,7-Eleven,"Plutarco Elías Calles, Av Abraham Lincoln S/N, Plutarco Elías Calles, 64108 Monterrey, N.L., Mexico",25.75227,-100.391542
64102,7 Eleven Seguridad Social,"Seguridad Social Y Avenida Ruiz Cortines 100, Av. Ruiz Cortines, Hacienda Mitras, 64340 Monterrey, N.L., Mexico",25.7391302,-100.3819096
64102,7-Eleven,"Rangel Frias Y Compostela 6400, Av. Solidaridad, 66644 Monterrey, N.L., Mexico",25.731037,-100.346869
64102,7-Eleven,"Cumbres San Agustin 2° Sector Avenida Cumbres de San Agustín, Caserta esq, 66024 Monterrey, N.L., Mexico",25.760736,-100.418854
64102,7-Eleven,"Prol Aztlán 7909, Valle de Santa Lucía, 64120 Monterrey, N.L., Mexico",25.7489665,-100.3616932
64102,7-Eleven,"Prolongacion Ruiz Cortinez 1501-A, Lomas Palmeira, 64346 Monterrey, N.L., Mexico",25.7691633,-100.4249424
64102,7-Eleven,"Av. Puerta de Hierro 9001-A, 64349 Monterrey, N.L., Mexico",25.7436974,-100.4209111
64102,7-Eleven,"Santa Cecilia, NL, Apodaca, Jaime Sabines 100, entre Nuñez Arce, 64108 Monterrey, N.L., Mexico",25.77447,-100.387853
64102,7-Eleven,"Los Arcos, Puerta De Hierro, Prolongacion Ruiz Cortinez 8916, 64346 Monterrey, N.L., Mexico",25.762649,-100.41244
64102,7-Eleven,"Cumbres de San Agustín 1100, 64340 Monterrey, N.L., Mexico",25.7583695,-100.4184648
64102,7-Eleven,"Av Abraham Lincoln 5000, Lomas de Las Cumbres, 64116 Monterrey, N.L., Mexico",25.7461735,-100.3844247
64102,7-Eleven,"Las Lomas Ave Lomas de Oriente 300, Las Lomas Sector Bosques, 66024 García, N.L., Mexico",25.760338,-100.4296525
64102,7-Eleven,"Cumbres Elite. Av. Paseo De Los Leones S/N, 64348 Monterrey, N.L., Mexico",25.739116,-100.40696
64102,7-Eleven,"Tlatelolco 264, Lomas Modelo, 64140 Monterrey, N.L., Mexico",25.7433625,-100.3640137
64102,7-Eleven,"Cumbres de San Agustín 293, Cumbres San Agustín, 64346 Monterrey, N.L., Mexico",25.765862,-100.4181515
64102,7-Eleven,"Solidaridad, Av. Luis Donaldo Colosio Murrieta S/N, 66420 Monterrey, N.L., Mexico",25.765581,-100.396669
64102,7-Eleven,"Av. Azteca 3804, Jardín Modelo, 64160 Monterrey, N.L., Mexico",25.7352285,-100.3523673
64102,7-Eleven,"Solidaridad, Av. Luis Donaldo Colosio Murrieta S/N, 64100 Monterrey, N.L., Mexico",25.765641,-100.398788
64102,7-Eleven,"Calle Sta Engracia 127, Privadas de Camino Real, 66064 Cdad. Gral. Escobedo, N.L., Mexico",25.8076935,-100.3892801
64102,7-Eleven,"Av Villa Corona 1100, Mitras Poniente, 66023 García, N.L., Mexico",25.7785307,-100.4332672
64102,7-Eleven,"C. Altamisa 1001, 64102 Monterrey, N.L., Mexico",25.7641852,-100.4024691
64102,7-Eleven,"Av. E, Av. Luis Donaldo Colosio Murrieta, Mirasol 1o., 64100 Monterrey, N.L., Mexico",25.772246,-100.388478
64102,7-Eleven,"Av. Ruiz Cortines 6556, Mirador de Las Mitras, 64348 Monterrey, N.L., Mexico",25.746008,-100.3882497
64102,7-Eleven,"Av Abraham Lincoln 6309, Paseo de Las Mitras, 64118 Monterrey, N.L., Mexico",25.7410058,-100.3795712
64102,7-Eleven,"Av. Puerta de Hierro 9002, 64346 Monterrey, N.L., Mexico",25.74299,-100.420396
64102,7-Eleven,"Lomas De Cumbres, Prolongacion Ruiz Cortinez S/N, Las Lomas Sector Bosques, Las Lomas Sector Jardines, 66023 García, N.L., Mexico",25.771414,-100.430148
64102,7-Eleven,"Libramiento A Saltillo 6803, 66067 Cdad. Gral. Escobedo, N.L., Mexico",25.813258,-100.380006
64102,7-Eleven,"Av. Ruiz Cortines 5502, Portal de Cumbres 1o. Sector, 64348 Monterrey, N.L., Mexico",25.745033,-100.387303
64102,7-Eleven,"Uxmal 405, Unidad Modelo, 64190 Monterrey, N.L., Mexico",25.7394243,-100.3544997
64102,7-Eleven,"Av Pedro Infante 5854, Sin Nombre de Col 7, 64348 Monterrey, N.L., Mexico",25.7397258,-100.3947555
64102,7-Eleven,"Cumbres Elite. Alejandro De Rodas S/N, 66444 Monterrey, N.L., Mexico",25.740574,-100.403847
64102,7-Eleven Guadalcazar,"Av Villa Corona 1100, Mitras Poniente, 66024 Mitras Poniente, N.L., Mexico",25.7770483,-100.4276317
64102,7-Eleven,"Av. Castellana 681, 64349 Monterrey, N.L., Mexico",25.757961,-100.424978
64102,7-Eleven Valle de Cumbres,"P.º Valle de Cumbres 970, Valle de Cumbres, 66035 Mitras Poniente, N.L., Mexico",25.7589954,-100.4382164
64102,7-Eleven,"Calle Seguridad Soc. 100, Hacienda Mitras, 64340 Monterrey, N.L., Mexico",25.7345487,-100.3859958
64102,7-Eleven Cumbres Sol,"Av. Verona, Cumbres San Agustín, 64349 Monterrey, N.L., Mexico",25.7621631,-100.4260265
64102,7-Eleven,"Av Villa Corona 899, Mitras Poniente, 66023 Mitras Poniente, N.L., Mexico",25.777103,-100.427491
64102,7-Eleven,"QH48+Q7, Cumbres San Patricio, 66035 Monterrey, N.L., Mexico",25.7569375,-100.4343125
64102,7-Eleven,"Paseo de los Leones S/N, Cumbres Madeira, 66460 Monterrey, N.L., Mexico",25.741326,-100.410923
64102,Seven Eleven,"Paseo de los Leones, Cumbres Elite 4to. Sector, 64349 Monterrey, N.L., Mexico",25.7401127,-100.4072018
64102,7-Eleven,"Paseo De Cumbres, Av. Alejandro de Rodas, 66634 Monterrey, N.L., Mexico",25.746104,-100.411414
64102,7-Eleven,"Av. Solidaridad 6400, Nueva Galicia, 64160 Monterrey, N.L., Mexico",25.7322474,-100.3472574
64102,7-Eleven,"Avenida Bosques de las Lomas y Verona, Las Lomas Sector Bosques, 64340 Mitras Poniente, N.L., Mexico",25.763782,-100.433044
64102,7-Eleven,"Coñac 1102, Cumbres San Agustín, 64346 Monterrey, N.L., Mexico",25.762951,-100.4178064
64102,7-Eleven,"Av. Paseo de Cumbres 201, Cumbres Madeira, 64346 Monterrey, N.L., Mexico",25.7488922,-100.409639
64102,7-Eleven,"Av. P.º de Los Leones 1500, 66036 García, N.L., Mexico",25.7528291,-100.4350896
64102,7-Eleven,"Av. E, Av No Reelección 200-1, Las Plazas, 64102 Monterrey, N.L., Mexico",25.7693745,-100.4034222
64102,7-Eleven,"Paseo de Cumbres 1er Sector, 64346 Monterrey, Nuevo Leon, Mexico",25.758742,-100.404636
64102,7-Eleven,"Nogal 107, Valle de Infonavit, 64630 Monterrey, N.L., Mexico",25.7291368,-100.3783238
64102,7-Eleven,"Colonial del Río 6405, Lomas de Las Cumbres, 64116 Monterrey, N.L., Mexico",25.745928,-100.383466
64102,7-Eleven,"Castilla, Av. Puerta de Hierro, Puerta De Hierra 1000, 64346 Monterrey, N.L., Mexico",25.752288,-100.4172802
64102,7-Eleven,"Av Monte Everest 130, 64349 Monterrey, N.L., Mexico",25.755789,-100.40968
64102,7-Eleven,"Av. Puerta de Hierro 8998, Residencial Puerta de Hierro, 64346 Monterrey, N.L., Mexico",25.75762,-100.414325
64102,7-Eleven,"Av. Union 200, Mirasur, 66070 Cdad. Gral. Escobedo, N.L., Mexico",25.7978496,-100.3437881
64985,7-Eleven,"Carr Nacional 6239, Sin Nombre de Col 52, 64985 Monterrey, N.L., Mexico",25.5342934,-100.2170522
64985,7-Eleven,"El Cerrito, Carr Nacional Km. 261, El Faisán, 67303 Santiago, N.L., Mexico",25.508286,-100.19489
64985,7-Eleven,"Carr. a San Roque 1006 Esq, Valle Real, 67250 Cdad. Benito Juárez, N.L., Mexico",25.610404,-100.157495
64985,7-Eleven,"Carr Nacional S/N, El Yerbaniz, 67300 Santiago, N.L., Mexico",25.495183,-100.188697
64985,7-Eleven,"FRACC. VALLE REAL. AV. VALLE DEL OLMO, Valle Ote. 969 ESQ, DE REAL, 67250 Cdad. Benito Juárez, N.L., Mexico",25.610078,-100.16117
64985,7-Eleven,"P.º de las Gardenias 403, Monte Kristal, 67276 Cdad. Benito Juárez, N.L., Mexico",25.6287113,-100.1543674
64985,7 Eleven,"Carr. a San Roque S/N, 67280 Cdad. Benito Juárez, N.L., Mexico",25.6158456,-100.155369
64985,7-Eleven,"Carr. a San Roque, 67289 Cdad. Benito Juárez, N.L., Mexico",25.629635,-100.155125
64985,7-Eleven,"HECTOR CABALLERO ESCAMILLA, Av Eloy Cavazos 3200-A, 64860 Cdad. Benito Juárez, N.L., Mexico",25.631968,-100.127983
64640,7-Eleven,"Cd. del Maíz 429, Mitras Nte., 64320 Monterrey, N.L., Mexico",25.7109952,-100.352091
64640,7-Eleven,"C. 7 2665, Adolfo López Mateos, 64380 Monterrey, N.L., Mexico",25.7086101,-100.358061
64640,7-Eleven,"Residencial Abraham Lincoln, C. Nueva Inglaterra 4201, 66482 Monterrey, N.L., Mexico",25.714168,-100.355593
64640,7-Eleven,"Melchor Múzquiz 1202, Industrial, 64440 Monterrey, N.L., Mexico",25.6917224,-100.3242034
64640,7-Eleven,"Burocratas, C. Gobernadores 201, 64380 Monterrey, N.L., Mexico",25.708687,-100.367849
64640,7-Eleven,"Paseo de los Leones 2247, Cumbres 2o. Sector Secc C, 64610 Monterrey, N.L., Mexico",25.7097289,-100.3742877
64640,7-Eleven,"Paseo de los Leones 2730, Cumbres 3o. Sector, 64610 Monterrey, N.L., Mexico",25.7160409,-100.3831413
64640,7-Eleven,"Av. Colon, Poniente 1000-Local 17, 64000 Monterrey, N.L., Mexico",25.6873,-100.321661
64640,7-Eleven,"Av. Cuauhtémoc 755-Sur, Centro, 64000 Monterrey, N.L., Mexico",25.6696109,-100.3190244
64640,7-Eleven,"Juan Ignacio Ramón 233, Centro, 64000 Monterrey, N.L., Mexico",25.6715199,-100.3163871
66200,7-Eleven,"Av. Perimetral Nte, C. 6 Pte. 921 Esq, 66116 Cdad. Santa Catarina, N.L., Mexico",25.695425,-100.4506541
66200,7-Eleven,"Villa Dorada 403, Villas del Mirador, 66365 Cdad. Santa Catarina, N.L., Mexico",25.695172,-100.4409139
66200,7-Eleven,"Av. Agosto S/N, Bosques del Poniente Tercer Sector, 64000 Cdad. Santa Catarina, N.L., Mexico",25.677888,-100.450424
66200,7-Eleven,"Av. Ignacio Morones Prieto 4500-Pte, Zona Valle Poniente, 66238 San Pedro Garza García, N.L., Mexico",25.6603117,-100.4211294
66200,7-Eleven,"Las Mitras Carretera Monterrey-Saltillo Km 625, 66350 Cdad. Santa Catarina, N.L., Mexico",25.6743115,-100.4357197
66200,7-Eleven,"Av. José Vasconcelos 1567, Zona Valle del Mezquite, 66230 San Pedro Garza García, N.L., Mexico",25.6558441,-100.3882019
66200,7-Eleven,"Av. Cuauhtémoc 237, Sin Nombre de Col 14, 66145 Cdad. Santa Catarina, N.L., Mexico",25.6792695,-100.4389691
66200,7-Eleven,"Ignacio Manuel Altamirano 1002, Las Sendas Galicia, 66230 San Pedro Garza García, N.L., Mexico",25.6562761,-100.4082521
66200,7-Eleven,"Av. Manuel Jesus Clouthier 201-Local 1, Fama Dos, 66116 Cdad. Santa Catarina, N.L., Mexico",25.6822816,-100.4221408
66200,7-Eleven,"ESQ ANTIGUO, COL. ENRIQUE RANG. AVE. ACUEDUCTO, Lechugal 260, 67170 Cdad. Santa Catarina, N.L., Mexico",25.662267,-100.451132
66200,7-Eleven,"Jerónimo Siller 1023, Jerónimo Siller, 66230 San Pedro Garza García, N.L., Mexico",25.6408297,-100.369044
66200,7-Eleven,"Rio Volga 595, Del Valle, 66320 San Pedro Garza García, N.L., Mexico",25.6586593,-100.3834111
66200,7-Eleven,"Av. José Vasconcelos 220, Del Valle, 66220 San Pedro Garza García, N.L., Mexico",25.652395,-100.3780626
66200,7-Eleven,"Av. Manuel Gómez Morín 402, Valle de Santa Engracia, 66267 San Pedro Garza García, N.L., Mexico",25.656046,-100.3567396
66200,7-Eleven,"Av. Cuauhtémoc 1400, Residencial Cuauhtémoc, Cuauhtémoc, 66144 Cdad. Santa Catarina, N.L., Mexico",25.6853763,-100.4445236
66200,7-Eleven San Pedro,"Priv. San Pedro 230, Jardines Del Valle, 66230 San Pedro Garza García, N.L., Mexico",25.6607713,-100.3683064
66200,7-Eleven,"Jamaica 110, Vista Hermosa, 64620 Monterrey, N.L., Mexico",25.6924712,-100.356509
66200,7-Eleven,"Blvd Gustavo Díaz Ordaz 118, Estacion la Leona, 66149 Cdad. Santa Catarina, N.L., Mexico",25.6747105,-100.4261617
66200,7-Eleven,"Huerta 111, Hacienda los Portales, 66351 Cdad. Santa Catarina, N.L., Mexico",25.6806933,-100.4394318
66200,7-Eleven,"26A. Avenida 271, Cumbres 1º. Sector Secc a, 64610 Monterrey, N.L., Mexico",25.703013,-100.368187
66200,7-Eleven,"Puerta del Sol Nte. 205-Local 101, Dinastía, 64639 Monterrey, N.L., Mexico",25.7002887,-100.3762399
66200,7-Eleven,"Esq. Av. Del Rosario, Hacienda Del Rosario, Av. José Vasconcelos 266-2, 67190 San Pedro Garza García, N.L., Mexico",25.655022,-100.385218
66200,7-Eleven,"Vía Savotino, Fuentes del Valle, 66220 San Pedro Garza García, N.L., Mexico",25.662682,-100.362801
66200,7-Eleven,"Cumbres, Av. Paseo De La Victoria 2101-2Do Sector, 67112 Monterrey, N.L., Mexico",25.7069944,-100.3711578
66200,7-Eleven,"Blvd Gustavo Díaz Ordaz 102, Protexa Industrial, 66149 Cdad. Santa Catarina, N.L., Mexico",25.6749189,-100.429529
66200,7-Eleven,"Av. Anillo Periferico, Rincón de San Jerónimo, 67169 Monterrey, N.L., Mexico",25.689039,-100.376894
66200,7-Eleven,"Esq, Colinas De San Jeronimo. Av. Insurgentes, C. Pirandello S/N, 64000 Monterrey, N.L., Mexico",25.680913,-100.36329
66200,7-Eleven,"Vía Savotino 667, Fuentes del Valle, 66224 Monterrey, N.L., Mexico",25.6602364,-100.3562588
66200,7-Eleven,"Belisario Domínguez Poniente # 2725, Obispado, 64060 Monterrey, N.L., Mexico",25.674592,-100.350396
66200,7-Eleven,"Sin Nombre de Col 28, Montaña, 66197 Santa Catarina, Nuevo Leon, Mexico",25.6616569,-100.4383935
66200,7-Eleven,"Luis Donaldo Colosio Murrieta 460-B, Sin Nombre de Col 10, 66364 Santa Catarina, N.L., Mexico",25.6892258,-100.4539253
64790,7-Eleven,"C. José Sixto Verduzco 800, Central de Abastos, 67140 Guadalupe, N.L., Mexico",25.6666486,-100.2642536
66239,7-Eleven,"Av Raúl Rangel Frías 699, Burócratas del Estado, 64410 Monterrey, N.L., Mexico",25.7131947,-100.3626666
66239,7-Eleven,"Av. Ruiz Cortines 421, Burócratas del Estado, 64310 Monterrey, N.L., Mexico",25.7129249,-100.3622689
66239,7-Eleven,"Miguel Hidalgo y Costilla 2404, Obispado, 64060 Monterrey, N.L., Mexico",25.6719696,-100.346823
64000,7-Eleven,"Av. Francisco I. Madero 1980, Obrera, 64010 Monterrey, N.L., Mexico",25.681737,-100.2954365
66216,7-Eleven,"Av Zapopan 5203, Villa Dorada, 64370 Monterrey, N.L., Mexico",25.7248869,-100.3750156
66216,7-Eleven,"Aníbal S/N-3Er Sector, La Esperanza, 64460 Monterrey, N.L., Mexico",25.719268,-100.376229
66216,7-Eleven,"Av Abraham Lincoln 5003, Villa Mitras, 66450 Monterrey, N.L., Mexico",25.7241428,-100.3640722
66216,7-Eleven,"Luis Donaldo Colosio Murrieta 109, Lomas del Poniente 1er Sector, 66350 Cdad. Santa Catarina, N.L., Mexico",25.692871,-100.457249
66216,7-Eleven,"Av. San José 4202, Los Cedros, 64370 Monterrey, N.L., Mexico",25.7170857,-100.3732062
66279,7-Eleven,"Fraccionamiento R S Agustin 2Do Sector, Av. Real San Agustin Local 505-5, 66260 San Pedro Garza García, N.L., Mexico",25.65044,-100.339812
66279,7-Eleven,"Av. Batallón de San Patricio 1000-Local 2074 Y 2076, Zona San Agustín, 66260 San Pedro Garza García, N.L., Mexico",25.6493611,-100.3375028
66279,7-Eleven,"Av. Cto. Frida Kahlo 195, Haciendas de La Sierra, 66269 San Pedro Garza García, N.L., Mexico",25.646983,-100.323542
66279,7 Eleven 1751 Plaza Fiesta,"Zona San Agustín, 66260 San Pedro Garza García, Nuevo Leon, Mexico",25.6496841,-100.3381086
66279,7-Eleven,"Independencia, Hilario Martinez S/N, 67190 Monterrey, N.L., Mexico",25.655656,-100.305408
66279,7 Eleven Plaza Fiesta San Agustin,"Av. Real San Agustin 22, Residencial San Agustín 2o Sector, 66260 San Pedro Garza García, N.L., Mexico",25.6501948,-100.3382822
66279,7-Eleven,"José María Morelos 556, Centro, 64000 Monterrey, N.L., Mexico",25.667102,-100.311556
66230,7-Eleven,"Av. Dr. Ignacio Morones Prieto 1100-Local-1, Sin Nombre de Col 28, Montaña, 66196 Cdad. Santa Catarina, N.L., Mexico",25.6615851,-100.4379439
66230,7-Eleven,"Dr. Eduardo Aguirre Pequeño 1772, Mitras Centro, 64460 Monterrey, N.L., Mexico",25.6923384,-100.3466968
66230,7-Eleven,"Con Libertad Norte, Prados del Sol, 66365 Cdad. Santa Catarina, N.L., Mexico",25.687987,-100.434957
67286,"7-Eleven , Parada 1 Sofia","Av Eloy Cavazos SN-I, Los Reyes, 67190 Cdad. Benito Juárez, N.L., Mexico",25.6401184,-100.1514845
67286,7 Eleven Santa Maria,"Av Maestro Israel Cavazos Garza, Santa María Sector C, 67190 Guadalupe, N.L., Mexico",25.6554486,-100.1837413
67286,7-Eleven,"Eloy Cavazos y Avenida San Roque L77, Manzana 89, Portal de Vaquerias, 66270 Cdad. Benito Juárez, N.L., Mexico",25.639238,-100.152304
67286,7-Eleven 785 Exhacienda El Rosario,"Cto. Hacienda de los Arcos 120, Ex Hacienda El Rosario, 67288 Jardines de la Silla, N.L., Mexico",25.643697,-100.1686833
67286,Seven Eleven,"Av Eloy Cavazos, Sin Nombre de Col 54, 67180 Monterrey, N.L., Mexico",25.6546258,-100.2089011
67286,7-eleven San Antonio,"San Antonio, 67280 Fraccionamiento San Francisco, N.L., Mexico",25.6257723,-100.1248513
67286,7- Eleven San Francisco,"67280 Fraccionamiento San Francisco, Nuevo Leon, Mexico",25.6256822,-100.1246742
67286,7-Eleven Villaluz,"Fracc. Villaluz, 67275 Juárez, Nuevo Leon, Mexico",25.6430444,-100.1198749
64960,7-Eleven 148 Contry Sol,"Eje Metropolitano 410, Contry La Silla 8o Sector, 67173 Guadalupe, N.L., Mexico",25.6475075,-100.2674795
66280,7-Eleven Torres Obispado 2559,"Miguel Hidalgo y Costilla 2404, Centro, 64060 Monterrey, N.L., Mexico",25.6720022,-100.3468036
66280,7-Eleven,"Centro, 67176 Monterrey, Nuevo Leon, Mexico",25.668651,-100.336646
66280,7-Eleven,"San Francisco esquina Morones Prieto 111, 64710 Monterrey, N.L., Mexico",25.6683473,-100.3450256
66280,7 eleven,"Av San Jemo 535-C SUPER 7, San Jerónimo 2o. Sector, 64630 Monterrey, N.L., Mexico",25.6813157,-100.3704243
66280,7-Eleven,"Blvd Gustavo Díaz Ordaz 2123, Sin Nombre de Col 4, La Fama, 66100 Cdad. Santa Catarina, N.L., Mexico",25.6751132,-100.4199245
66280,7-Eleven,"Santos Degollado 943-Norte, Centro, 64000 Monterrey, N.L., Mexico",25.6859064,-100.3342466
66237,7-Eleven,"Av. los Garza 120, Infonavit la Huasteca, 66354 Cdad. Santa Catarina, N.L., Mexico",25.6656314,-100.4598309
66237,7-Eleven,"Calle Hidalgo Nte 895, Centro, 66350 Cdad. Santa Catarina, N.L., Mexico",25.6755336,-100.4607157
66237,7-Eleven,"Av. Rincón de Las Palmas L1-3O SECTOR, Rincón de las Palmas, 66490 Cdad. Santa Catarina, N.L., Mexico",25.70363,-100.462255
66237,7 eleven,"Calle Las Huertas 399, Bosques del Poniente Cuarto Sector, 66362 Cdad. Santa Catarina, N.L., Mexico",25.6757812,-100.4578488
66237,7-Eleven,"Hacienda, S. Gabriel 200, San Gilberto, 66367 Cdad. Santa Catarina, N.L., Mexico",25.6984751,-100.4566404
66237,7-Eleven,"Av Manuel Ordoñez 600, Bosques del Poniente Cuarto Sector, 66362 Santa Catarina, N.L., Mexico",25.6740937,-100.4534454
66197,7-Eleven,"Av. Real del Valle 800, Real del Valle Cuarto Sector, 66351 Cdad. Santa Catarina, N.L., Mexico",25.6703389,-100.4740438
66197,7-Eleven,"Av Manuel Ordoñez 306, Centro, 66350 Cdad. Santa Catarina, N.L., Mexico",25.6735129,-100.4649325
66197,7-Eleven,"Luis Donaldo Colosio Murrieta 711, Rincón del Poniente, 66368 Cdad. Santa Catarina, N.L., Mexico",25.6980262,-100.4675206
66197,7-Eleven,"Ind Del Poniente 301, Sin Nombre de Col 3, 66350 Cdad. Santa Catarina, N.L., Mexico",25.685889,-100.465262
66197,7-Eleven,"C. José María Morelos 800, Panorámica, 66362 Cdad. Santa Catarina, N.L., Mexico",25.6672563,-100.4641714
66197,7-Eleven,"Sta Catarina. Carrtera Mty-Saltillo, 5 S/N, 64000 Cdad. Santa Catarina, N.L., Mexico",25.685941,-100.474468
66197,7-Eleven,"Carr. Monterrey - Saltillo 1602-A, LT, Edxx, 66350 Cdad. Santa Catarina, N.L., Mexico",25.6852397,-100.4777218
66197,7-Eleven,"Carr. Monterrey - Saltillo Lote 1, Sin Nombre de Col 4, 66350 Cdad. Santa Catarina, N.L., Mexico",25.6855157,-100.4715956
66197,7-Eleven noche buena,"Avenida José María Morelos y Pavón 800, Jardines de Santa Catarina Uno, 66354 Cdad. Santa Catarina, N.L., Mexico",25.680443,-100.4663571
66197,7-Eleven,"Av Manuel Ordoñez 2300, Residencial de la Sierra, 66350 Cdad. Santa Catarina, N.L., Mexico",25.6790226,-100.4819884
66197,7-Eleven,"AVENIDA 15 302, Lomas del Poniente 1er Sector, 66369 Cdad. Santa Catarina, N.L., Mexico",25.6951673,-100.45549
66197,7-Eleven,"Av. Capitán Lucas García 619-2° Sect, Santa Cecilia, Santa Cecilia Residencial II, 66350 Cdad. Santa Catarina, N.L., Mexico",25.6787197,-100.4911172
66542,7-Eleven,"609 Metropolitan Ave, Leavenworth, KS 66048, United States",39.3276555,-94.92015549999999
66542,7-Eleven,"7552 State Ave, Kansas City, KS 66112, United States",39.1169601,-94.75544409999999
66542,7-Eleven,"11960 S Strang Line Rd, Olathe, KS 66062, United States",38.9116009,-94.7673574
66542,7-Eleven,"10950 Parallel Pkwy, Kansas City, KS 66109, United States",39.1289447,-94.8344035
66542,7-Eleven,"11350 W 135th St, Overland Park, KS 66221, United States",38.8841261,-94.7181447
66542,7-Eleven,"34 N 130th St, Bonner Springs, KS 66012, United States",39.0989505,-94.88284159999999
66542,7-Eleven,"8901 Wornall Rd, Kansas City, MO 64114, United States",38.966593,-94.59495919999999
66542,7-Eleven,"2500 Central Ave, Kansas City, KS 66102, United States",39.1091241,-94.658234
66542,7-Eleven,"1550 S Hamilton Cir, Olathe, KS 66061, United States",38.8584991,-94.8129182
66542,7-Eleven,"2151 E 151st St, Olathe, KS 66062, United States",38.8544027,-94.7802615
66542,7-Eleven,"201 E US Hwy 24, Independence, MO 64050, United States",39.1008083,-94.4123817
66542,7-Eleven,"8700 W 95th St, Overland Park, KS 66212, United States",38.9570604,-94.68672029999999
66542,7-Eleven,"10701 Metcalf Ave, Overland Park, KS 66210, United States",38.9339011,-94.66656859999999
66542,7-Eleven,"11724 Quivira Rd, Overland Park, KS 66210, United States",38.91460980000001,-94.7243542
66542,7-Eleven,"16675 Midland Dr, Shawnee, KS 66217, United States",38.9989042,-94.7791999
66542,7-Eleven,"202 N Parker St, Olathe, KS 66061, United States",38.8845247,-94.8336542
66542,7-Eleven,"11001 East 23rd St S, Independence, MO 64052, United States",39.0801331,-94.44904100000001
66542,7-Eleven,"3201 Independence Ave, Kansas City, MO 64124, United States",39.1057374,-94.543621
66542,7-Eleven,"12333 E US Hwy 40, Independence, MO 64055, United States",39.0422186,-94.4343274
66542,7-Eleven,"6506 Main St, Grandview, MO 64030, United States",38.8868678,-94.517618
66542,7-Eleven,"6850 Antioch Rd, Merriam, KS 66204, United States",39.0038097,-94.6866757
66542,7-Eleven,"2924 S 47th St, Kansas City, KS 66106, United States",39.0488296,-94.68671289999999
66542,7-Eleven,"2636 Van Brunt Blvd, Kansas City, MO 64127, United States",39.0763254,-94.5210812
66542,7-Eleven,"4251 NE Antioch Rd, Kansas City, MO 64117, United States",39.1710608,-94.5483805
66542,7-Eleven,"4431 Shawnee Dr, Kansas City, KS 66106, United States",39.0518367,-94.6809865
66542,7-Eleven,"909 SW Oldham Pkwy, Lee's Summit, MO 64081, United States",38.909899,-94.3948638
66542,7-Eleven,"2067 Rutherford Rd @ Westburne, Concord, ON L4K 5T6, Canada",43.83754889999999,-79.502416
66542,7-Eleven,"3150 Gillham Rd, Kansas City, MO 64109, United States",39.0688259,-94.57928659999999
66542,7-Eleven,"13901 S Mur-Len Rd, Olathe, KS 66062, United States",38.87530479999999,-94.7790294
66542,7-Eleven St. Francis Church,"The St Francis Shangri-La Place Tower 2, St Francis, Ortigas Center, Mandaluyong, Metro Manila, Philippines",14.5797149,121.0564814
66542,7-Eleven,"1701 Independence Ave, Kansas City, MO 64106, United States",39.1063098,-94.56087099999999
67199,7-Eleven,"Malagueña 411, 67266 Cdad. Benito Juárez, N.L., Mexico",25.6294717,-100.1177551
67199,7-Eleven,"Av. Adolfo López Mateos entre Calle Cedro y Sabino, Jardines de San Rafael, 67110 Monterrey, N.L., Mexico",25.696041,-100.212809
67262,7-Eleven,"Carretera A Reynosa, Supermanzana Centro Km 29.2, Lomas de los Pilares 3ro Sector, 64979 Cadereyta Jiménez, N.L., Mexico",25.598786,-100.028448
67262,7-Eleven,"Francisco I. Madero Sur 421, 67266 Cdad. Benito Juárez, N.L., Mexico",25.634623,-100.104451
67262,7-Eleven,"Carr. a San Mateo 407, 67266 Cdad. Benito Juárez, N.L., Mexico",25.632461,-100.098181
67262,7 Eleven Santa Anita,"NL 41, 67485 N.L., Mexico",25.6159629,-100.0536667
67262,7-Eleven,"San Antonio s/n, 67262 Cdad. Benito Juárez, N.L., Mexico",25.627136,-100.062
67262,7-Eleven,"Fraccionamiento Hda La Morena. Av. Arturo B. De La Garza Sin Numero, 64753 Cdad. Benito Juárez, N.L., Mexico",25.637143,-100.085067
67262,7-Eleven,"Av del Álamo 101-B, Valle del Roble, 67458 Valle del Roble, N.L., Mexico",25.609058,-100.065767
67262,7-Eleven,"Av. Fuente de Piedra, 67262 Cdad. Benito Juárez, N.L., Mexico",25.629612,-100.07425
67262,7-Eleven,"Cadereyta - Allende KM 900, Valle de Cadereyta, 64988 Cadereyta Jiménez, N.L., Mexico",25.582329,-100.002142
67262,7-Eleven,"Carretera Cadereyta Allende Km2 Col. Cadereyta, Centro, 64540 Cadereyta, N.L., Mexico",25.5782684,-100.0036098
67262,7-Eleven,"Zaragoza 100, Sin Nombre de Col 1, 67450 Cadereyta Jiménez, N.L., Mexico",25.5930127,-100.0014692
67262,7-Eleven,"Calle Miguel Hidalgo 212, Sin Nombre de Col 1, 67450 Cadereyta Jiménez, N.L., Mexico",25.5908716,-100.0040551
67262,7-Eleven,"Hacienda De San Bartolo Carretera Cadereyta-Allende Sin Numero, 67456 N.L., Mexico",25.559423,-100.006189
67262,7-Eleven,"Carretera Mty, Graciano Sanchez, C. Reynosa Km 33, Sin Numero, 64890 Cadereyta Jiménez, N.L., Mexico",25.603628,-99.97981999999999
67255,7-Eleven,"Las Misiones, Autop. Monterrey- Reynosa Km. 33.7, Pemex, 67450 Cadereyta Jiménez, N.L., Mexico",25.600936,-99.97147799999999
67255,7 Eleven,"N.L MX, Monterrey, 67483 Cadereyta Jiménez, N.L., Mexico",25.5896879,-99.9838097
67255,7-Eleven,"Vía Corso y Carretera a Reynosa, Manzana 545 Lote 4, 67485 Cadereyta Jiménez, N.L., Mexico",25.6000602,-99.96683639999999
67194,7 Eleven Exposición,"Benito Juárez, Sin Nombre de Col 31, 67155 Guadalupe, N.L., Mexico",25.6796886,-100.2452826
66623,7-Eleven,"FRACCIONAMIENTO TRIANA. CAMINO APODACA AGUA FRIA 214, 66620 Cdad. Apodaca, N.L., Mexico",25.800896,-100.172243
66623,7-Eleven,"Villas Premier, Supermanzana Colonia:, Primera Colonia, 66620 Cdad. Apodaca, N.L., Mexico",25.797853,-100.15655
66623,7-Eleven,"Carretera Agua Fria-Zuazua # 4353, 66620 Cdad. Apodaca, N.L., Mexico",25.816614,-100.152701
66623,7-eleven,"Av. Sta. Elena 109i, Sector San Jorge, Valle de Santa Elena, 65776 Valle de Santa Elena, N.L., Mexico",25.8522272,-100.1344538
66623,7-Eleven,"Av. Central 2513, 66655 Colinas del Aeropuerto, N.L., Mexico",25.8160285,-100.1083355
66623,7-Eleven,"P.º Virreyes 11, 66606 Cdad. Apodaca, N.L., Mexico",25.801297,-100.192794
66623,Seven eleven,"Cerro Palomas, 66623 Cdad. Natura, N.L., Mexico",25.8406716,-100.137071
66623,7-Eleven,"Av. Miguel Alemán 2403, 66600 Cdad. Apodaca, N.L., Mexico",25.7914468,-100.1391521
66623,7 Eleven,"Av Arco Vial 100, Residencial Apodaca, 66605 Cdad. Apodaca, N.L., Mexico",25.7905656,-100.1796313
66623,7 eleven imss apodaca,"José María Morelos y Pavón 410, Apodaca Centro, 66600 Cdad. Apodaca, N.L., Mexico",25.7884492,-100.186823
66623,7-Eleven,"NL, García. Colonia: Balcones de García . Av. Sor Juana Inés de la Cruz 201, 66606 Cdad. Apodaca, N.L., Mexico",25.796443,-100.196472
66623,7-Eleven,"Parque Industrial Millenium, Blvrd Aeropuerto 151, Parque Industrial FINSA, 66600 Cdad. Apodaca, N.L., Mexico",25.7855754,-100.134487
66623,7-Eleven,"Av.ENIDA, Calle Antiguo Camino a Sta Rosa 2000, 66606 Cdad. Apodaca, N.L., Mexico",25.800494,-100.199769
66623,7-Eleven Prologys Park,"Av. Miguel Alemán 1000, Sin Nombre de Col 29, 66627 Cdad. Apodaca, N.L., Mexico",25.7804199,-100.1759879
66623,7-Eleven,"66629, 66600 Cdad. Apodaca, N.L., Mexico",25.780085,-100.122715
66623,7-Eleven,"Rubén García Garza, Sin Nombre de Col 28, 66604 Cdad. Apodaca, N.L., Mexico",25.785228,-100.199057
66623,7-Eleven Apodaca Tránsito,"Cabecera Municipal (Apodaca), Apodaca Centro, 66600 Ciudad Apodaca, Nuevo Leon, Mexico",25.7788843,-100.1866644
66623,7-Eleven,"TAM, Matamoros. Colonia: Ejido Las Rusias. Carretera Matamoros Reynosa Km, 66269 N.L., Mexico",25.895004,-100.171708
66623,7-Eleven,"Av. Real de Palmas Sn, 66251 Real de Palmas, N.L., Mexico",25.901555,-100.162786
66623,7-Eleven,"NL, Apodaca. Colonia: Apodaca Centro. Escobedo #101, 66626 Cdad. Apodaca, N.L., Mexico",25.776309,-100.113618
66623,7-Eleven,"NL 186 1000, Centro de Pesquería, 66653 Pesquería, N.L., Mexico",25.7893418,-100.0698756
66623,7-Eleven,"Santa Luz, NL, Escobedo, Av. Union 200, 66610 Cdad. Apodaca, N.L., Mexico",25.801517,-100.214607
66623,7 Eleven,"Av. de la Conquista 3315, 65750 Gral. Zuazua, N.L., Mexico",25.8980036,-100.1667782
66623,7-Eleven,"Calle Antiguo Camino a Sta Rosa 100, 66610 Cdad. Apodaca, N.L., Mexico",25.818814,-100.213959
66623,7-Eleven,"Av. Real de Palmas Sn, 66269 Gral. Zuazua, N.L., Mexico",25.8961397,-100.1693833
66623,7-Eleven izquierdo,"Av Alfonso Reyes, Los Soles, 66610 Ex-Hacienda Santa Rosa, N.L., Mexico",25.7981915,-100.2118529
66623,Seven Eleven Paraje Santa Rosa,"Sao Paulo, Paraje Santa Rosa, 66607 Ex-Hacienda Santa Rosa, N.L., Mexico",25.807106,-100.217902
66623,7-Eleven,"TAM, MATAMOROS, AURORA. TERCERA S/N, 65565 Cdad. Apodaca, N.L., Mexico",25.860513,-100.23664
66623,7-Eleven Paseo de Sta. Rosa 2388,"PASEO DE SANTA ROSA SN, Kiwi 300-1 Er Sector, Paseo de Santa Rosa, 66614 Cdad. Apodaca, N.L., Mexico",25.820292,-100.2293398
66623,7-Eleven,"PASEO DE SANTA ROSA, KIWI 300-1 ER SECTOR, 66612 Cdad. Apodaca, N.L., Mexico",25.820352,-100.245191
66623,7-Eleven,"Av. Costa de Marfil 104, Prados de La Cieneguita, 66636 Cdad. Apodaca, N.L., Mexico",25.7795447,-100.2583045
66623,7-Eleven,"Estelaris Esq San Andres Col, Valle de San Andrés, 66612 Cdad. Apodaca, N.L., Mexico",25.797409,-100.2466659
66623,7-Eleven,"C. E Sexta 853, Sin Nombre, 66613 Cdad. Apodaca, N.L., Mexico",25.8115278,-100.2497085
66610,7-Eleven,"Nuevo Las Puentes, Bari L24-Quinto Sector, 66612 Cdad. Apodaca, N.L., Mexico",25.787455,-100.259787
66610,7-Eleven,"Av. Concordia 201, 66059 Cdad. Gral. Escobedo, N.L., Mexico",25.785223,-100.276143
66610,7-Eleven,"Calzada Anahuac, Av. República Mexicana 400, 66059 Cdad. Gral. Escobedo, N.L., Mexico",25.790752,-100.274986
66610,7-Eleven,"La Concordia, Av. Concordia 3640, Metroplex I, 66604 Cdad. Apodaca, N.L., Mexico",25.7846877,-100.2489296
66610,7-Eleven,"Av. Benito Juárez Manzana 123, Privadas de Anáhuac, Cerrada de Anáhuac Residencial, 66059 Cdad. Gral. Escobedo, N.L., Mexico",25.778518,-100.273533
66610,7-Eleven,"Av. República Mexicana 901, México Lindo, 66059 Cdad. Gral. Escobedo, N.L., Mexico",25.7638509,-100.2734796
66610,7-Eleven,"Av. Concordia 430, 66635 Cdad. Apodaca, N.L., Mexico",25.785123,-100.2667224
66610,7-Eleven,"Av. Andrómeda 400, Andalucía Segundo Sector, 66612 Cdad. Apodaca, N.L., Mexico",25.7902707,-100.2606762
66610,7-Eleven,"Av. Privadas de Anáhuac 208, Privadas de Anáhuac, Cerrada de Anáhuac Residencial, 66059 Cdad. Gral. Escobedo, N.L., Mexico",25.7727348,-100.2751024
66610,7-Eleven,"María, Av. Concepcion Barragan 203, Enramada ÌII, 66635 Cdad. Apodaca, N.L., Mexico",25.7635069,-100.258797
66610,7-Eleven,"Jesús Solis 600, La Nogalera 3er Sector, 66417 San Nicolás de los Garza, N.L., Mexico",25.7691762,-100.2729318
66610,7-Eleven balcones del norte,"Carr. México-Laredo, Sin Nombre de Col 1, 66610 Cdad. Apodaca, N.L., Mexico",25.8212583,-100.2639755
66610,7-Eleven,"Berlín 604, El Refugio 1er Sector, 66414 San Nicolás de los Garza, N.L., Mexico",25.7536625,-100.2709545
66610,7-Eleven | Cerradas de Anáhuac,"Misión de Anáhuac, 66059 General Escobedo, Nuevo Leon, Mexico",25.7791123,-100.2728599
66610,7-Eleven,"Calle, Calle Luis Donaldo Colosio S/N, 66060 Monterrey, N.L., Mexico",25.8085323,-100.2639416
66610,7-Eleven,"Irlandeses y Juárez L30, Privadas de Anáhuac, 66059 San Nicolás de los Garza, N.L., Mexico",25.779048,-100.276888
66610,7-Eleven,"Av. Sendero Divisorio, Paseo de Las Palmas, 66636 Cdad. Apodaca, N.L., Mexico",25.7708539,-100.2648812
66610,7-Eleven,"Av las Palmas 501, Paseo de Las Palmas ÌII, 66612 Cdad. Apodaca, N.L., Mexico",25.7790002,-100.2658753
66610,7-Eleven,"Av las Palmas 501, 66612 Cdad. Apodaca, N.L., Mexico",25.7885524,-100.266728
66610,7-Eleven,"Infonavit, Honduras, Sin Nombre de Col 11, 66636 Cdad. Apodaca, N.L., Mexico",25.7640778,-100.2431987
66610,7-Eleven,"col. Hacienda del Sol, NL, Villa de Garcia, Av. Hacienda del Sol Supermanzana Colonia:, 66610 Cdad. Apodaca, N.L., Mexico",25.782318,-100.237962
66610,7-Eleven,"Agustín de Iturbide 255, Héroes de México, 66415 San Nicolás de los Garza, N.L., Mexico",25.7607361,-100.2683455
66610,7-Eleven,"Jaime Sabines 100, Santa Cecilia, 66610 Cdad. Apodaca, N.L., Mexico",25.774485,-100.234395
66610,7-Eleven,"Pensamiento 415, Hacienda del Roble, 66417 San Nicolás de los Garza, N.L., Mexico",25.762262,-100.276352
66673,Seven Eleven,"Lote de Terreno No. 7 de la, Manzana 235, Almería, 66626 Saltillo, N.L., Mexico",25.764693,-100.133162
66630,7-Eleven,"De los Franciscanos 101, Privadas de Anáhuac, 66612 Cdad. Apodaca, N.L., Mexico",25.7725913,-100.2820506
66630,7-Eleven,"Blvd. Camino Real 104, Privadas de Anáhuac, 66054 Cdad. Gral. Escobedo, N.L., Mexico",25.773454,-100.281505
66630,7-Eleven,"Rincon. Av. San Nicolas, Av. Cristina Larralde Esquina, 67185 San Nicolás de los Garza, N.L., Mexico",25.746902,-100.287154
66630,7-Eleven,"Carr. a Colombia 601, Hacienda del Cañada, 66054 Cdad. Gral. Escobedo, N.L., Mexico",25.7813712,-100.2886625
66630,7-Eleven,"Av. Santo Domingo 800, Sin Nombre de Col 13, 66460 San Nicolás de los Garza, N.L., Mexico",25.7551713,-100.2826553
66630,7-Eleven,"Av Morenita Mia 203, Residencial el Roble 7 sector, 66414 San Nicolás de los Garza, N.L., Mexico",25.7641128,-100.2805816
66630,7-Eleven,"Av. Cordillera de los Andes 103, Paseo de las Puentes, 66460 San Nicolás de los Garza, N.L., Mexico",25.7413375,-100.2851219
66630,7-Eleven,"Porfirio Díaz 637, Centro, 66450 San Nicolás de los Garza, N.L., Mexico",25.756984,-100.2869686
66646,7-Eleven,"Strip Mall Aeropuerto De Mty, Av. Miguel Alemán Km 24, Sin Nombre de Col 40, 66600 Cdad. Apodaca, N.L., Mexico",25.7341665,-100.209026
66646,7 Eleven Isidoro Sepulveda,"Carretera Apodaca-benito juarez 1101, Col. Labor del Corrienton, 66600 Cdad. Apodaca, N.L., Mexico",25.7362659,-100.2084438
66612,7-Eleven,"Avenida Universidad 150-Local 9, Centro, 66414 San Nicolás de los Garza, N.L., Mexico",25.7540791,-100.2972609
66612,7-Eleven,"Socrates Rizo, Libramiento Noreste Km 31-No. 1700, 66050 Cdad. Gral. Escobedo, N.L., Mexico",25.826263,-100.287636
66612,7-Eleven,"Avenida Universidad 300, Centro, 66400 San Nicolás de los Garza, N.L., Mexico",25.7551949,-100.2968724
66612,7-Eleven,"colonia :, Avenida Benito Juarez, Centro, 66400 San Nicolás de los Garza, N.L., Mexico",25.762399,-100.294045
66612,7-Eleven Las Hadas,"Av Las Hadas, Esquina con Dragones S/N, Las Hadas, 66050 Cdad. Gral. Escobedo, N.L., Mexico",25.7846445,-100.2929226
66612,7-Eleven,"Avenida Universidad 960, Centro, 66400 San Nicolás de los Garza, N.L., Mexico",25.756655,-100.296195
66612,7-Eleven (2537 Camino Real III),"Av. Benito Juárez 240, Col. La Encomienda, Privadas de Anáhuac, 66054 Cdad. Gral. Escobedo, N.L., Mexico",25.7791301,-100.2808626
66612,7-Eleven,"Miguel Hidalgo Y Costilla 801, Centro, 66460 San Nicolás de los Garza, N.L., Mexico",25.7494956,-100.2883212
66612,7-Eleven,"Porfirio Díaz, C. Jerónimo Treviño 200 ESQUINA, 66400 San Nicolás de los Garza, N.L., Mexico",25.755417,-100.292754
66612,7-Eleven,"Av Jorge Treviño 140, Julio C. Treviño, 66460 San Nicolás de los Garza, N.L., Mexico",25.7504907,-100.2777031
66612,7-Eleven,"Carr. a Colombia 260, Joyas de Anahuac, Cdad. Gral. Escobedo, 66054 Escobedo, N.L., Mexico",25.7687907,-100.292395
66612,7-Eleven,"Universidad Sin, Cedeco, 66427 San Nicolás de los Garza, N.L., Mexico",25.7668152,-100.2889391
66612,7-Eleven,"Av. Manuel L. Barragán 220, Joyas de Anahuac, 66054 Cdad. Gral. Escobedo, N.L., Mexico",25.7737685,-100.3030456
66612,7-Eleven,"Benito Juárez Ote. 103, Periférico Nte., 66420 San Nicolás de los Garza, N.L., Mexico",25.7509595,-100.2993389
66612,7-Eleven,"Carr. Monclova Km 55, Sin Nombre de Col 14, 66052 Cdad. Gral. Escobedo, N.L., Mexico",25.8062704,-100.2799725
66612,7 Eleven,"Av Arturo B. de la Garza 1204, Sin Nombre de Col 10, 66420 San Nicolás de los Garza, N.L., Mexico",25.7654136,-100.288915
66612,7-Eleven,"Carr. Monterrey - Nuevo Laredo 1600, Hacienda del Cañada, 61521 Cdad. Gral. Escobedo, N.L., Mexico",25.7803644,-100.2862271
66635,7-Eleven,"Av. Los Pinos 204, Nexxus Sector Dorado, Joyas de Anahuac, 66061 Cdad. Gral. Escobedo, N.L., Mexico",25.778528,-100.3109268
66635,7-Eleven,"Av. Parque Anáhuac 330, Anáhuac, 66450 San Nicolás de los Garza, N.L., Mexico",25.7358574,-100.3000436
66635,7-Eleven,"Av Juan Pablo II 440, Residencial Periferico, 66423 San Nicolás de los Garza, N.L., Mexico",25.7517614,-100.3066942
66635,7-Eleven,"Avenida Universidad 401, Roble 2do Sector, 66424 San Nicolás de los Garza, N.L., Mexico",25.7432708,-100.3033424
66635,7-Eleven,"Av. Nexxus 120-LOCAL 1, NEXXUS PLATINO, 1er SECTOR, 64102 Cdad. Gral. Escobedo, N.L., Mexico",25.766206,-100.306602
66635,7-Eleven,"Las Puentes 1, Cerro de Las Mitras 200, 64346 San Nicolás de los Garza, N.L., Mexico",25.74643,-100.290533
66635,7-Eleven,"Melchor Ocampo 100, Jardines del Cañada, 66050 Cdad. Gral. Escobedo, N.L., Mexico",25.8034456,-100.3072812
66635,7-Eleven,"Av San Nicolás 110, Sin Nombre de Col 2, Arboledas de San Jorge, 66465 San Nicolás de los Garza, N.L., Mexico",25.733721,-100.2907118
66635,7-Eleven,"C. Torres de Falcon 107-Norte, Residencial Anahuac 1er Sector, 66422 San Nicolás de los Garza, N.L., Mexico",25.74863,-100.3115443
66635,7-Eleven,"San Francisco 1200, Sin Nombre de Col 28, 66449 San Nicolás de los Garza, N.L., Mexico",25.741088,-100.264799
66636,7-Eleven,"Av Lerdo de Tejada 767, Sin Nombre de Col 5, 66425 San Nicolás de los Garza, N.L., Mexico",25.7588942,-100.3034169
66636,7-Eleven,"Anillo Vial Metropolitano 201, Sin Nombre de Col 2, Hacienda las Puentes, 66479 San Nicolás de los Garza, N.L., Mexico",25.736646,-100.287282
66636,7- eleven calle 6,"RESIDENCIAL LAS PUENTES SECTOR 1 SECCION A SN, SECTOR 1, SECCION A, Residencial las Puentes, 66460 San Nicolás de los Garza, N.L., Mexico",25.7376235,-100.2741718
66636,7-Eleven,"Av. Benito Juárez 123, Jardines del Cañada, 66050 Cdad. Gral. Escobedo, N.L., Mexico",25.7930799,-100.3074428
66750,7-Eleven,"Santa Fe, MEX, Av. Vasco De Quiroga No. 1494, 66679 N.L., Mexico",25.7626,-99.98904200000001
66750,7-Eleven independencia cienega de flores,"Av. Independencia, Ciénega de Flores Centro, 65550 Ciénega de Flores, N.L., Mexico",25.954208,-100.1666561
66750,7-Eleven KIA,"MEX Vasco de Quiroga No. 1494 Colonia:, Santa Fe, 66679 N.L., Mexico",25.7626594,-99.9886723
66750,7-Eleven plaza cienega de flores,"Hidalgo, Centro de Ciénega de Flores, 65550 Ciénega de Flores, N.L., Mexico",25.9529784,-100.1675376
66600,7-Eleven,"Av. Verde Valle 400, Sin Nombre de Col 7, 66632 Cdad. Apodaca, N.L., Mexico",25.750919,-100.229438
66477,7-Eleven,"Av. Félix Galván 520, Sin Nombre de Col 36, 66496 San Nicolás de los Garza, N.L., Mexico",25.7122038,-100.2603137
66477,7-Eleven Conductores,"Plaza Conductores, Av Conductores SN-I, Sin Nombre de Col 31, 66470 San Nicolás de los Garza, N.L., Mexico",25.7288521,-100.2534483
65516,7-Eleven,"Av. El Jaral 600, Fraccionamiento El Jaral, 66559 El Jaral, N.L., Mexico",25.8596619,-100.3162959
65516,7-Eleven,"FRACCIONAMIENTO EL JARAL. AV. VILLA DEL CARMEN, Carrizal ESQ, 66559 N.L., Mexico",25.864466,-100.314035
65516,7-Eleven,"Carr. Monterrey - Nuevo Laredo Km 19-8, 65510 Cdad. Apodaca, N.L., Mexico",25.848253,-100.2451387
65516,7-Eleven,"Carr. a Colombia 4390, 66050 Cdad. Gral. Escobedo, N.L., Mexico",25.848645,-100.292598
65516,7-Eleven,"TAM, Matamoros, Calle Camino Real No. 22, Col:, las culturas, 66052 Cdad. Gral. Escobedo, N.L., Mexico",25.83511,-100.312019
65516,7-Eleven,"Carr. a Salinas Victoria Km 235, 65580 Ciénega de Flores, N.L., Mexico",25.873963,-100.250335
65516,7-Eleven,"TAM, Matamoros. Colonia: Fraccionamiento Las Palmas, Division del Norte #33, 65550 Ciénega de Flores, N.L., Mexico",25.868184,-100.230986
65516,7-Eleven,"RMWJ+P4, 66083 Nuevo León, N.L., Mexico",25.8455396,-100.3185644
65516,7-Eleven,"Calz. del Sol, Pilares, 65515 Los Pilares, N.L., Mexico",25.9163287,-100.2547278
65516,7-Eleven,"NL, Cienega De Flores. Colonia: Cienega de Flores, Av. Hidalgo No 100, Centro, 65515 Salinas Victoria, N.L., Mexico",25.919133,-100.241605
65516,7 Eleven,"Evaristo Caballero 3299, Andrés Caballero Moreno Agropecuaria, 66080 Cdad. Gral. Escobedo, N.L., Mexico",25.826054,-100.2961601
65516,7-Eleven,"Ubicado En La, Carr. a Colombia Km 1 400, Unión de Comerciantes Sócrates Rizzo, 66050 Cdad. Gral. Escobedo, N.L., Mexico",25.8235276,-100.295271
65516,7-Eleven,"NL, Apodaca, Av. Tierra 137, Cosmópolis, 66052 Cdad. Gral. Escobedo, N.L., Mexico",25.819162,-100.29441
65516,7-Eleven,"Soira 220, Villa Castello, 66053 Cdad. Gral. Escobedo, N.L., Mexico",25.8117611,-100.3143865
65516,7-Eleven,"Sin Nombre de Col 10, 66072 General Escobedo, Nuevo Leon, Mexico",25.809296,-100.335136
65516,7-Eleven,"Av. Lic. Raúl Caballero Escamilla S/N, Centro, 66050 Cdad. Gral. Escobedo, N.L., Mexico",25.8081075,-100.3230293
65516,7 eleven,"Mirasur, 66070 General Escobedo, Nuevo Leon, Mexico",25.7905594,-100.3430822
65516,7-Eleven,"Av. Los Pinos 100, Sin Nombre de Col 15, 66074 Cdad. Gral. Escobedo, N.L., Mexico",25.7897171,-100.309732
65516,7-Eleven,"Fraccionamiento Monte Horeb 100, Monte Horeb, 66071 Cdad. Gral. Escobedo, N.L., Mexico",25.795703,-100.3388955
65516,7-Eleven,"Av. Benito Juárez Lote 28, Colonia Almara, 66087 Cdad. Gral. Escobedo, N.L., Mexico",25.804968,-100.318486
65516,7-Eleven,"Av. Vista Regia 8283, 66583 Buena Vista, N.L., Mexico",25.854636,-100.3733407
65516,7-Eleven,"NL, Escobedo. Colonia: Los Rincones Residencial. Av. Los Pinos L073, Manzana 001, 66056 Cdad. Gral. Escobedo, N.L., Mexico",25.789583,-100.318889
65516,7-Eleven,"Av. Adolfo López Mateos 104, Sin Nombre de Col 1, Balcones del Nte 1er Sector, 66052 Cdad. Gral. Escobedo, N.L., Mexico",25.8093961,-100.2630201
65516,7 Eleven,"P.º de la Amistad 300, Monte Real, 66056 Cdad. Gral. Escobedo, N.L., Mexico",25.7968301,-100.3170359
65516,7-Eleven Hacienda Las Yucas,"Av. las Nuevas Puentes S/N, Villas Premier, 66612 Cdad. Apodaca, N.L., Mexico",25.7982049,-100.2563189
65516,7 Eleven,"Monte Horeb 5764, Monte Horeb, 67114 Cdad. Gral. Escobedo, N.L., Mexico",25.7971936,-100.3384208
65516,7-Eleven,"Av. Las Torres 100, INFONAVIT Topo Grande, 66450 Cdad. Gral. Escobedo, N.L., Mexico",25.7829012,-100.3109362
65516,7-Eleven,"Av. Raúl Salinas Lozano 193, Villas del Parque, 66055 Cdad. Gral. Escobedo, N.L., Mexico",25.7796308,-100.3180564
65516,7-Eleven Las Torres,"Av. Las Torres 5526, Las Brisas, 64780 Monterrey, N.L., Mexico",25.7807458,-100.3101027
65516,7-Eleven,"Av. Raúl Salinas Lozano 710-planta baja, Quinto Centenario, 66072 Cdad. Gral. Escobedo, N.L., Mexico",25.792519,-100.335072
65516,7-Eleven,"Av. Acueducto 99, Villa de los Ayala, 66070 Cdad. Gral. Escobedo, N.L., Mexico",25.7905054,-100.3348348
65800,7-Eleven,"Carr. Monterrey - Nuevo Laredo Km 12,5, 65565 N.L., Mexico",26.6691604,-99.9716187
66601,Topeka 2,"4441 SE California Ave, Topeka, KS 66609, United States",38.9868066,-95.65238959999999
66601,7-Eleven,"174 Adelaide St, Brisbane City QLD 4000, Australia",-27.4674822,153.0259402
66601,7-Eleven; Sapporo S-3 W-6,"6 Chome-8 Minami 3 Jonishi, Chuo Ward, Sapporo, Hokkaido 060-0063, Japan",43.05643509999999,141.3496878
66601,7-ELEVEN 新汐農門市,"221, Taiwan, New Taipei City, Xizhi District, Zhangshu 1st Rd, 113號115號",25.0640666,121.641961
66601,7-ELEVEN Harajuku Takeshita-dori Store,"1 Chome-6-12 Jingumae, Shibuya, Tokyo 150-0001, Japan",35.6711143,139.7051264
66601,Street Corner,"2945 SW Wanamaker Dr, Topeka, KS 66614, United States",39.0130151,-95.7579195
66601,7-Eleven Maragondon,"7PFP+Q4C, Col. C. Riel, Poblacion 1A, Maragondon, 4112 Cavite, Philippines",14.2743992,120.7352517
66601,7-Eleven (Legarda),"12 Legarda Rd, Baguio, 2600 Benguet, Philippines",16.4104347,120.5909748
67318,7-Eleven,"Congregacion Los Rodriguez, Carr Nacional Km. 255, De Huajuquito, 67330 Santiago, N.L., Mexico",25.460371,-100.170278
67318,7-Eleven,"Carr Nacional 130, El Cercado, 67310 Santiago, N.L., Mexico",25.404911,-100.133431
67318,7-Eleven,"Carr Nacional 100, Los Cavazos, 67310 Santiago, N.L., Mexico",25.431864,-100.15244
67318,7-Eleven,"Carr Nacional KM 253, Condado de Asturias, 67318 Santiago, N.L., Mexico",25.4615161,-100.1699252
67318,7-Eleven,"Carr Nacional 100, 67310 Santiago, N.L., Mexico",25.4217986,-100.1460336
67318,7-Eleven,"Carr Nacional SN-C, Congregación San José Norte, 67300 Santiago, N.L., Mexico",25.397217,-100.126747
67318,7-Eleven El Tino,"67510, Los Cavazos, 67510 Santiago, N.L., Mexico",25.4444557,-100.1604926
67318,7-Eleven,"Carr Nacional 300, San Pedro, 67307 Santiago, N.L., Mexico",25.3858677,-100.1164225
67318,Paradero 7 Eleven,"Carr Nacional 300, San Pedro, 67307 Santiago, N.L., Mexico",25.38583,-100.1164065
67318,7-Eleven,"Lazarillos. Carretera Nacional Km. 234, 67350 Cdad. de Allende, N.L., Mexico",25.326954,-100.063737
67318,7-Eleven,"Progreso. Av. Dr. Ramon Flores, Roberto Aguirre, 67350 Cdad. de Allende, N.L., Mexico",25.301875,-100.033631
67318,7-Eleven,"Carr Nacional 1101, San Javier, 67350 Cdad. de Allende, N.L., Mexico",25.2841483,-100.0301624
67318,7-Eleven,"Carr Nacional 8000, Centro de Allende, 64988 Monterrey, N.L., Mexico",25.2738337,-100.0166344
67318,7-Eleven,"Carr Nacional S/N, Centro de Allende, 67350 Cdad. de Allende, N.L., Mexico",25.278266,-100.021413
67318,7-Eleven,"Serafín Peña 306, Centro, 64000 Monterrey, N.L., Mexico",25.6700785,-100.3259427
67318,7-Eleven,"Atongo, Carr Nacional Km 229.5, 67350 Cdad. de Allende, N.L., Mexico",25.297996,-100.049113
67450,Seven Eleven,"Calle Prol. Benito Juárez 319, Sin Nombre de Col 7, 67485 Cadereyta Jiménez, N.L., Mexico",25.5704855,-100.0144223
67540,7-Eleven,"Cuauhtémoc 602, Centro de Montemorelos, 67500 Montemorelos, N.L., Mexico",25.1898964,-99.826578
67540,7-Eleven,"ZARAGOZA. ZARAGOZA 320, entre DEGOLLADO Y MIER Y TERAN, Del Maestro, 67530 Montemorelos, N.L., Mexico",25.189116,-99.828876
67540,7-Eleven,"Calle 204, Zaragoza, 67530 Montemorelos, N.L., Mexico",25.18883,-99.83594699999999
67540,7-Eleven,"Mar Blanco 101, 67512 Montemorelos, N.L., Mexico",25.20018,-99.843054
67540,7-Eleven,"Nuevo Repueblo, Carr Nacional, Buena Vista, 67610 Cdad. de Allende, N.L., Mexico",25.264654,-100.005092
67540,7-Eleven,"63C9+8C, 67608 Congregación Calles, N.L., Mexico",25.2207292,-99.93145740000001
67540,Senda,"Querétaro s/n, Zaragoza, 67530 Montemorelos, N.L., Mexico",25.1887041,-99.835515
67327,Petro Seven,"Carr. Nacional #300, Col, Privada San Jose Nte., 67307 Monterrey, N.L., Mexico",25.3972059,-100.1271608
67700,7-Eleven Tempokrysset,"Skiringssalveien 9, 3211 Sandefjord, Norway",59.13606999999999,10.213547
67700,7-Eleven - Turbina Calamba,"54PP+4MX, AH26, Calamba, 4027 Laguna, Philippines",14.1853534,121.1367321
67740,7-Eleven Two San Parq (1111),"MXV6+M3, Bacolod, Negros Occidental, Philippines",10.6941875,122.9601875
